{
"type": "FeatureCollection",
"name": "color_capres_muy_bajo",
"crs": { "type": "name", "properties": { "name": "urn:ogc:def:crs:OGC:1.3:CRS84" } },
"features": [
{ "type": "Feature", "properties": { "Codigo": 101, "datos_finales_color_riesgo": "E1E9D8" }, "geometry": { "type": "MultiPolygon", "coordinates": [ [ [ [ -90.391035159999944, 14.619836581000072 ], [ -90.395760696999957, 14.619488601000057 ], [ -90.396546412999953, 14.618941834000054 ], [ -90.397929867999949, 14.61903858900007 ], [ -90.400733620999972, 14.618072832000053 ], [ -90.407058371999938, 14.61455366000007 ], [ -90.410485329999972, 14.614478847000044 ], [ -90.412848083999961, 14.613089098000046 ], [ -90.422576495999976, 14.610915932000069 ], [ -90.428872518999981, 14.611968990000037 ], [ -90.43069964099999, 14.613103652000063 ], [ -90.431593742999951, 14.613699557000075 ], [ -90.434369626999967, 14.613872411000045 ], [ -90.439694003999989, 14.61132703100003 ], [ -90.446358647999944, 14.609545986000057 ], [ -90.4481738, 14.607557003000068 ], [ -90.448762215999977, 14.605554582000025 ], [ -90.449513972999966, 14.604469731000052 ], [ -90.450554631999978, 14.603470468000069 ], [ -90.455303575999949, 14.600461041000074 ], [ -90.457290485999977, 14.599101677000021 ], [ -90.457872617999953, 14.599149803000046 ], [ -90.459197119999942, 14.598167137000075 ], [ -90.46723431099997, 14.596478267000066 ], [ -90.469412404999957, 14.594970673000034 ], [ -90.471491391999962, 14.593559094000057 ], [ -90.472087515999988, 14.592990776000022 ], [ -90.473695629999952, 14.589756014000045 ], [ -90.475525913999945, 14.587980342000037 ], [ -90.477978631999974, 14.584542371000055 ], [ -90.479384125999957, 14.581879008000044 ], [ -90.482289013999946, 14.578635561000056 ], [ -90.483393433999936, 14.578481465000038 ], [ -90.484960023999975, 14.579593699000043 ], [ -90.485782883999946, 14.579678219000073 ], [ -90.496131185999957, 14.577849342000036 ], [ -90.504191221999974, 14.577505355000028 ], [ -90.508298128999968, 14.576837770000054 ], [ -90.510157509999942, 14.57569107300003 ], [ -90.516304899999966, 14.574108916000057 ], [ -90.517723200999967, 14.572844534000069 ], [ -90.519056845999955, 14.569404281000061 ], [ -90.519790517999979, 14.569117328000061 ], [ -90.521734733999949, 14.565401211000051 ], [ -90.523005272999967, 14.563966954000023 ], [ -90.524223200999984, 14.561635495000075 ], [ -90.524408496999968, 14.560044058000074 ], [ -90.527083474999984, 14.558570431000021 ], [ -90.529461583999989, 14.556682576000071 ], [ -90.529989916999966, 14.556558290000055 ], [ -90.531850288999976, 14.553838307000035 ], [ -90.533811410999988, 14.543347680000068 ], [ -90.534538922999957, 14.541621902000031 ], [ -90.535141101999955, 14.540480894000041 ], [ -90.536342756999943, 14.538388566000037 ], [ -90.537501892999956, 14.537149514000077 ], [ -90.537999054999943, 14.537479975000053 ], [ -90.538628579999965, 14.538786396000035 ], [ -90.538987610999982, 14.539551304000042 ], [ -90.54044113499998, 14.540727480000044 ], [ -90.543266878999987, 14.541420037000023 ], [ -90.546892053999954, 14.543473825000035 ], [ -90.547871802999964, 14.543674941000063 ], [ -90.55657204299996, 14.544372345000056 ], [ -90.556663402999959, 14.547975747000066 ], [ -90.555560943999978, 14.549966470000072 ], [ -90.55563634899994, 14.555384477000075 ], [ -90.554790183999955, 14.557522418000076 ], [ -90.550511491999941, 14.562547022000047 ], [ -90.55009638699994, 14.562811443000044 ], [ -90.549702801999956, 14.564643541000066 ], [ -90.552719042999968, 14.565545816000053 ], [ -90.555069325999966, 14.567856094000035 ], [ -90.555498698999941, 14.572660073000065 ], [ -90.556357851999962, 14.575713630000052 ], [ -90.55652323299995, 14.576488924000046 ], [ -90.558707718999983, 14.57744230000003 ], [ -90.560155258999941, 14.578718846000072 ], [ -90.56034066899997, 14.579677295000067 ], [ -90.561229753999953, 14.580282847000035 ], [ -90.562348954999948, 14.580261781000047 ], [ -90.569533673999956, 14.577133961000072 ], [ -90.575794369999983, 14.576681791000055 ], [ -90.57776002199995, 14.577881177000052 ], [ -90.579025711999975, 14.579310451000026 ], [ -90.577451661999987, 14.58126702900006 ], [ -90.576946239999984, 14.586658741000065 ], [ -90.576351078999949, 14.588644658000021 ], [ -90.575176094999961, 14.589572037000039 ], [ -90.573362914999962, 14.592439692000028 ], [ -90.572136855999986, 14.597015291000048 ], [ -90.572360824999976, 14.612160420000066 ], [ -90.573389807999945, 14.616832888000033 ], [ -90.574220826999976, 14.621475064000037 ], [ -90.573819870999955, 14.624981885000068 ], [ -90.572769413999936, 14.628592603000072 ], [ -90.571288489999972, 14.629685003000077 ], [ -90.569102986999951, 14.629932097000051 ], [ -90.567259128999979, 14.631013903000053 ], [ -90.565881222999963, 14.63301529000006 ], [ -90.565492813999981, 14.636209389000044 ], [ -90.56670664699999, 14.643144655000071 ], [ -90.566061829999967, 14.649336598000048 ], [ -90.563242650999939, 14.651434658000028 ], [ -90.558790580999982, 14.652505956000027 ], [ -90.553055256999983, 14.652145277000045 ], [ -90.547026114999937, 14.653174891000049 ], [ -90.545275277999963, 14.653845271000023 ], [ -90.53835984899996, 14.657215301000065 ], [ -90.537668878999966, 14.657494817000043 ], [ -90.536196366999945, 14.657647474000044 ], [ -90.532904063999979, 14.659443096000075 ], [ -90.53004079499999, 14.663057951000042 ], [ -90.529299929999979, 14.665094042000021 ], [ -90.525662229999966, 14.667985762000058 ], [ -90.520335835999958, 14.671206067000071 ], [ -90.51926610199996, 14.671327893000068 ], [ -90.51617482499995, 14.672858868000048 ], [ -90.514989343999957, 14.673419846000058 ], [ -90.511552131999963, 14.675378421000062 ], [ -90.505365268999981, 14.676855706000026 ], [ -90.497866572999953, 14.676376384000037 ], [ -90.491876016999981, 14.675179119000063 ], [ -90.486493133999943, 14.673495941000056 ], [ -90.484413901999972, 14.673187729000063 ], [ -90.48314404599995, 14.674224153000068 ], [ -90.482485864999944, 14.675481752000053 ], [ -90.481342061999953, 14.680754130000025 ], [ -90.480597155999988, 14.682136122000031 ], [ -90.478618582999957, 14.683261927000046 ], [ -90.476636164999945, 14.684771605000037 ], [ -90.476615982999988, 14.685771876000047 ], [ -90.475725778999958, 14.686821405000046 ], [ -90.472724866999954, 14.687264135000078 ], [ -90.471486224999978, 14.688348240000039 ], [ -90.470821973999989, 14.693146950000028 ], [ -90.469730675999983, 14.693974054000023 ], [ -90.467013883999982, 14.694215408000048 ], [ -90.461795410999969, 14.693600518000039 ], [ -90.46060737, 14.694163408000065 ], [ -90.459107983999957, 14.695767401000069 ], [ -90.458405563999975, 14.69777195000006 ], [ -90.457807450999951, 14.698530996000045 ], [ -90.457296269999972, 14.698645085000067 ], [ -90.454019244999984, 14.702326463000077 ], [ -90.453817094999977, 14.703652185000067 ], [ -90.453415564999943, 14.704413375000058 ], [ -90.452146053999968, 14.705391989000077 ], [ -90.451888125999972, 14.705924396000057 ], [ -90.446614391999958, 14.706155420000073 ], [ -90.444699549999939, 14.706359021000026 ], [ -90.441094180999983, 14.709268689000055 ], [ -90.43792775299994, 14.709502444000066 ], [ -90.437247684999988, 14.708826439000063 ], [ -90.434746937999989, 14.706897210000022 ], [ -90.433935683999948, 14.706726752000066 ], [ -90.430918488999964, 14.707050142000071 ], [ -90.429495174999943, 14.707878988000061 ], [ -90.42366919899996, 14.709249468000053 ], [ -90.417890049999983, 14.708706359000075 ], [ -90.417219554999974, 14.708208823000064 ], [ -90.414156000999981, 14.708428716000071 ], [ -90.411741211999981, 14.708970853000039 ], [ -90.410503868999967, 14.710059097000055 ], [ -90.402328661999945, 14.711174647000064 ], [ -90.396640370999989, 14.713150050000024 ], [ -90.393834241999969, 14.712302111000042 ], [ -90.392993556999954, 14.711584669000047 ], [ -90.386822809999956, 14.709889161000035 ], [ -90.384076533999973, 14.708261548000053 ], [ -90.381956091999939, 14.706007531000068 ], [ -90.380701175999945, 14.703163705000065 ], [ -90.380374812999946, 14.698576808000041 ], [ -90.381894013999954, 14.694720991000054 ], [ -90.383303774999945, 14.691867734000027 ], [ -90.386611178999942, 14.686823840000045 ], [ -90.387039820999973, 14.683356520000075 ], [ -90.386740114999952, 14.677682535000031 ], [ -90.38844063, 14.672987449000061 ], [ -90.389041709999958, 14.672037813000031 ], [ -90.390358283999944, 14.668704662000039 ], [ -90.390802625999982, 14.668157495000059 ], [ -90.390601265999976, 14.664889710000068 ], [ -90.389075841999954, 14.660847126000021 ], [ -90.388615258999948, 14.660564178000072 ], [ -90.388131889999954, 14.659024221000038 ], [ -90.387952412999937, 14.655771363000042 ], [ -90.388353642999959, 14.655483419000063 ], [ -90.389783376999958, 14.650908322000078 ], [ -90.389338712999972, 14.646981764000031 ], [ -90.388267350999968, 14.645295194000028 ], [ -90.387828034999984, 14.641800036000063 ], [ -90.387314522999986, 14.64119129900007 ], [ -90.386400704999971, 14.633943139000053 ], [ -90.386313239999936, 14.628794330000062 ], [ -90.387144287999945, 14.624862897000071 ], [ -90.388078174999976, 14.623606456000061 ], [ -90.389438619999964, 14.621923452000033 ], [ -90.391035159999944, 14.619836581000072 ] ] ] ] } }
]
}
