{
"type": "FeatureCollection",
"name": "color_riesgo_muy_alto",
"crs": { "type": "name", "properties": { "name": "urn:ogc:def:crs:OGC:1.3:CRS84" } },
"features": [
{ "type": "Feature", "properties": { "Codigo": 101, "datos_finales_color_riesgo": "FFC8BF" }, "geometry": { "type": "MultiPolygon", "coordinates": [ [ [ [ -90.391035159999944, 14.619836581000072 ], [ -90.395760696999957, 14.619488601000057 ], [ -90.396546412999953, 14.618941834000054 ], [ -90.397929867999949, 14.61903858900007 ], [ -90.400733620999972, 14.618072832000053 ], [ -90.407058371999938, 14.61455366000007 ], [ -90.410485329999972, 14.614478847000044 ], [ -90.412848083999961, 14.613089098000046 ], [ -90.422576495999976, 14.610915932000069 ], [ -90.428872518999981, 14.611968990000037 ], [ -90.43069964099999, 14.613103652000063 ], [ -90.431593742999951, 14.613699557000075 ], [ -90.434369626999967, 14.613872411000045 ], [ -90.439694003999989, 14.61132703100003 ], [ -90.446358647999944, 14.609545986000057 ], [ -90.4481738, 14.607557003000068 ], [ -90.448762215999977, 14.605554582000025 ], [ -90.449513972999966, 14.604469731000052 ], [ -90.450554631999978, 14.603470468000069 ], [ -90.455303575999949, 14.600461041000074 ], [ -90.457290485999977, 14.599101677000021 ], [ -90.457872617999953, 14.599149803000046 ], [ -90.459197119999942, 14.598167137000075 ], [ -90.46723431099997, 14.596478267000066 ], [ -90.469412404999957, 14.594970673000034 ], [ -90.471491391999962, 14.593559094000057 ], [ -90.472087515999988, 14.592990776000022 ], [ -90.473695629999952, 14.589756014000045 ], [ -90.475525913999945, 14.587980342000037 ], [ -90.477978631999974, 14.584542371000055 ], [ -90.479384125999957, 14.581879008000044 ], [ -90.482289013999946, 14.578635561000056 ], [ -90.483393433999936, 14.578481465000038 ], [ -90.484960023999975, 14.579593699000043 ], [ -90.485782883999946, 14.579678219000073 ], [ -90.496131185999957, 14.577849342000036 ], [ -90.504191221999974, 14.577505355000028 ], [ -90.508298128999968, 14.576837770000054 ], [ -90.510157509999942, 14.57569107300003 ], [ -90.516304899999966, 14.574108916000057 ], [ -90.517723200999967, 14.572844534000069 ], [ -90.519056845999955, 14.569404281000061 ], [ -90.519790517999979, 14.569117328000061 ], [ -90.521734733999949, 14.565401211000051 ], [ -90.523005272999967, 14.563966954000023 ], [ -90.524223200999984, 14.561635495000075 ], [ -90.524408496999968, 14.560044058000074 ], [ -90.527083474999984, 14.558570431000021 ], [ -90.529461583999989, 14.556682576000071 ], [ -90.529989916999966, 14.556558290000055 ], [ -90.531850288999976, 14.553838307000035 ], [ -90.533811410999988, 14.543347680000068 ], [ -90.534538922999957, 14.541621902000031 ], [ -90.535141101999955, 14.540480894000041 ], [ -90.536342756999943, 14.538388566000037 ], [ -90.537501892999956, 14.537149514000077 ], [ -90.537999054999943, 14.537479975000053 ], [ -90.538628579999965, 14.538786396000035 ], [ -90.538987610999982, 14.539551304000042 ], [ -90.54044113499998, 14.540727480000044 ], [ -90.543266878999987, 14.541420037000023 ], [ -90.546892053999954, 14.543473825000035 ], [ -90.547871802999964, 14.543674941000063 ], [ -90.55657204299996, 14.544372345000056 ], [ -90.556663402999959, 14.547975747000066 ], [ -90.555560943999978, 14.549966470000072 ], [ -90.55563634899994, 14.555384477000075 ], [ -90.554790183999955, 14.557522418000076 ], [ -90.550511491999941, 14.562547022000047 ], [ -90.55009638699994, 14.562811443000044 ], [ -90.549702801999956, 14.564643541000066 ], [ -90.552719042999968, 14.565545816000053 ], [ -90.555069325999966, 14.567856094000035 ], [ -90.555498698999941, 14.572660073000065 ], [ -90.556357851999962, 14.575713630000052 ], [ -90.55652323299995, 14.576488924000046 ], [ -90.558707718999983, 14.57744230000003 ], [ -90.560155258999941, 14.578718846000072 ], [ -90.56034066899997, 14.579677295000067 ], [ -90.561229753999953, 14.580282847000035 ], [ -90.562348954999948, 14.580261781000047 ], [ -90.569533673999956, 14.577133961000072 ], [ -90.575794369999983, 14.576681791000055 ], [ -90.57776002199995, 14.577881177000052 ], [ -90.579025711999975, 14.579310451000026 ], [ -90.577451661999987, 14.58126702900006 ], [ -90.576946239999984, 14.586658741000065 ], [ -90.576351078999949, 14.588644658000021 ], [ -90.575176094999961, 14.589572037000039 ], [ -90.573362914999962, 14.592439692000028 ], [ -90.572136855999986, 14.597015291000048 ], [ -90.572360824999976, 14.612160420000066 ], [ -90.573389807999945, 14.616832888000033 ], [ -90.574220826999976, 14.621475064000037 ], [ -90.573819870999955, 14.624981885000068 ], [ -90.572769413999936, 14.628592603000072 ], [ -90.571288489999972, 14.629685003000077 ], [ -90.569102986999951, 14.629932097000051 ], [ -90.567259128999979, 14.631013903000053 ], [ -90.565881222999963, 14.63301529000006 ], [ -90.565492813999981, 14.636209389000044 ], [ -90.56670664699999, 14.643144655000071 ], [ -90.566061829999967, 14.649336598000048 ], [ -90.563242650999939, 14.651434658000028 ], [ -90.558790580999982, 14.652505956000027 ], [ -90.553055256999983, 14.652145277000045 ], [ -90.547026114999937, 14.653174891000049 ], [ -90.545275277999963, 14.653845271000023 ], [ -90.53835984899996, 14.657215301000065 ], [ -90.537668878999966, 14.657494817000043 ], [ -90.536196366999945, 14.657647474000044 ], [ -90.532904063999979, 14.659443096000075 ], [ -90.53004079499999, 14.663057951000042 ], [ -90.529299929999979, 14.665094042000021 ], [ -90.525662229999966, 14.667985762000058 ], [ -90.520335835999958, 14.671206067000071 ], [ -90.51926610199996, 14.671327893000068 ], [ -90.51617482499995, 14.672858868000048 ], [ -90.514989343999957, 14.673419846000058 ], [ -90.511552131999963, 14.675378421000062 ], [ -90.505365268999981, 14.676855706000026 ], [ -90.497866572999953, 14.676376384000037 ], [ -90.491876016999981, 14.675179119000063 ], [ -90.486493133999943, 14.673495941000056 ], [ -90.484413901999972, 14.673187729000063 ], [ -90.48314404599995, 14.674224153000068 ], [ -90.482485864999944, 14.675481752000053 ], [ -90.481342061999953, 14.680754130000025 ], [ -90.480597155999988, 14.682136122000031 ], [ -90.478618582999957, 14.683261927000046 ], [ -90.476636164999945, 14.684771605000037 ], [ -90.476615982999988, 14.685771876000047 ], [ -90.475725778999958, 14.686821405000046 ], [ -90.472724866999954, 14.687264135000078 ], [ -90.471486224999978, 14.688348240000039 ], [ -90.470821973999989, 14.693146950000028 ], [ -90.469730675999983, 14.693974054000023 ], [ -90.467013883999982, 14.694215408000048 ], [ -90.461795410999969, 14.693600518000039 ], [ -90.46060737, 14.694163408000065 ], [ -90.459107983999957, 14.695767401000069 ], [ -90.458405563999975, 14.69777195000006 ], [ -90.457807450999951, 14.698530996000045 ], [ -90.457296269999972, 14.698645085000067 ], [ -90.454019244999984, 14.702326463000077 ], [ -90.453817094999977, 14.703652185000067 ], [ -90.453415564999943, 14.704413375000058 ], [ -90.452146053999968, 14.705391989000077 ], [ -90.451888125999972, 14.705924396000057 ], [ -90.446614391999958, 14.706155420000073 ], [ -90.444699549999939, 14.706359021000026 ], [ -90.441094180999983, 14.709268689000055 ], [ -90.43792775299994, 14.709502444000066 ], [ -90.437247684999988, 14.708826439000063 ], [ -90.434746937999989, 14.706897210000022 ], [ -90.433935683999948, 14.706726752000066 ], [ -90.430918488999964, 14.707050142000071 ], [ -90.429495174999943, 14.707878988000061 ], [ -90.42366919899996, 14.709249468000053 ], [ -90.417890049999983, 14.708706359000075 ], [ -90.417219554999974, 14.708208823000064 ], [ -90.414156000999981, 14.708428716000071 ], [ -90.411741211999981, 14.708970853000039 ], [ -90.410503868999967, 14.710059097000055 ], [ -90.402328661999945, 14.711174647000064 ], [ -90.396640370999989, 14.713150050000024 ], [ -90.393834241999969, 14.712302111000042 ], [ -90.392993556999954, 14.711584669000047 ], [ -90.386822809999956, 14.709889161000035 ], [ -90.384076533999973, 14.708261548000053 ], [ -90.381956091999939, 14.706007531000068 ], [ -90.380701175999945, 14.703163705000065 ], [ -90.380374812999946, 14.698576808000041 ], [ -90.381894013999954, 14.694720991000054 ], [ -90.383303774999945, 14.691867734000027 ], [ -90.386611178999942, 14.686823840000045 ], [ -90.387039820999973, 14.683356520000075 ], [ -90.386740114999952, 14.677682535000031 ], [ -90.38844063, 14.672987449000061 ], [ -90.389041709999958, 14.672037813000031 ], [ -90.390358283999944, 14.668704662000039 ], [ -90.390802625999982, 14.668157495000059 ], [ -90.390601265999976, 14.664889710000068 ], [ -90.389075841999954, 14.660847126000021 ], [ -90.388615258999948, 14.660564178000072 ], [ -90.388131889999954, 14.659024221000038 ], [ -90.387952412999937, 14.655771363000042 ], [ -90.388353642999959, 14.655483419000063 ], [ -90.389783376999958, 14.650908322000078 ], [ -90.389338712999972, 14.646981764000031 ], [ -90.388267350999968, 14.645295194000028 ], [ -90.387828034999984, 14.641800036000063 ], [ -90.387314522999986, 14.64119129900007 ], [ -90.386400704999971, 14.633943139000053 ], [ -90.386313239999936, 14.628794330000062 ], [ -90.387144287999945, 14.624862897000071 ], [ -90.388078174999976, 14.623606456000061 ], [ -90.389438619999964, 14.621923452000033 ], [ -90.391035159999944, 14.619836581000072 ] ] ] ] } },
{ "type": "Feature", "properties": { "Codigo": 2209, "datos_finales_color_riesgo": "FFC8BF" }, "geometry": { "type": "MultiPolygon", "coordinates": [ [ [ [ -89.814352354999983, 14.172375601000056 ], [ -89.814306417999944, 14.171316281000031 ], [ -89.813165152999943, 14.170122757000058 ], [ -89.812224451999953, 14.167904796000073 ], [ -89.80955669299999, 14.16486248800004 ], [ -89.809694249999893, 14.16358665000007 ], [ -89.811023423999984, 14.163125774000036 ], [ -89.826397928999938, 14.161655938000024 ], [ -89.831952765999972, 14.161521719000064 ], [ -89.83261775699998, 14.161115142000028 ], [ -89.841676277999966, 14.160614975000044 ], [ -89.875800337999976, 14.157287503000077 ], [ -89.877669798999989, 14.15727911700003 ], [ -89.87889299599999, 14.158851583000057 ], [ -89.879622124999969, 14.159121812000024 ], [ -89.881956923999951, 14.157313443000078 ], [ -89.884332320999988, 14.156638843000053 ], [ -89.885149812999941, 14.15679168500003 ], [ -89.88730134399998, 14.158410035000031 ], [ -89.889195365999967, 14.156855479000058 ], [ -89.889991918999954, 14.156720199000063 ], [ -89.892243744999973, 14.158749553000064 ], [ -89.893298535999975, 14.158934792000025 ], [ -89.895240795999939, 14.158680012000048 ], [ -89.897795364999979, 14.157078616000035 ], [ -89.89889313399999, 14.156952846000024 ], [ -89.900631051999937, 14.157476486000064 ], [ -89.902662858999975, 14.159360692000064 ], [ -89.902170982999962, 14.160614046000035 ], [ -89.899950450999938, 14.163043806000076 ], [ -89.895920233999959, 14.16877319300005 ], [ -89.894867635999958, 14.17122816400007 ], [ -89.887973009999939, 14.178966647000038 ], [ -89.884372187999986, 14.184806277000064 ], [ -89.879598628999986, 14.188489292000042 ], [ -89.877888922999944, 14.189104738000026 ], [ -89.873120347999986, 14.188070639000046 ], [ -89.868519940999988, 14.190503877000026 ], [ -89.865763296999944, 14.190858332000062 ], [ -89.858312554999941, 14.188853085000062 ], [ -89.853609988999949, 14.188790182000048 ], [ -89.844847467999955, 14.189466056000072 ], [ -89.843202032999955, 14.190490676000024 ], [ -89.841916086999959, 14.192329310000048 ], [ -89.84039168299995, 14.193383720000043 ], [ -89.836242023999944, 14.194492581000077 ], [ -89.835077868999974, 14.19522100100005 ], [ -89.833713092999972, 14.197438903000034 ], [ -89.832233692999978, 14.198663146000058 ], [ -89.83056394099998, 14.199306957000033 ], [ -89.829192228999943, 14.200148847000037 ], [ -89.827257753999959, 14.199945984000067 ], [ -89.825538535999954, 14.198660162000067 ], [ -89.822836130999974, 14.19814910100007 ], [ -89.818208396999978, 14.20274455200007 ], [ -89.816565048999962, 14.203812990000074 ], [ -89.816525683999942, 14.203153314000076 ], [ -89.816645354999935, 14.202042023000047 ], [ -89.81751044799995, 14.200118966000048 ], [ -89.81841288399994, 14.188482906000047 ], [ -89.818097272999978, 14.180803627000046 ], [ -89.817631983999945, 14.177050196000039 ], [ -89.814352354999983, 14.172375601000056 ] ] ] ] } },
{ "type": "Feature", "properties": { "Codigo": 807, "datos_finales_color_riesgo": "FFC8BF" }, "geometry": { "type": "MultiPolygon", "coordinates": [ [ [ [ -91.213398965999943, 15.101989101000072 ], [ -91.21557018499999, 15.102019789000053 ], [ -91.218969798999979, 15.102757132000022 ], [ -91.230353534999949, 15.104849361000049 ], [ -91.248103285999946, 15.112479560000054 ], [ -91.24955717499995, 15.113715396000032 ], [ -91.251188984999942, 15.11615910200004 ], [ -91.25139754199995, 15.122848443000066 ], [ -91.253131993999943, 15.126897089000067 ], [ -91.255650679999974, 15.129766744000051 ], [ -91.257308943999988, 15.129849583000066 ], [ -91.258373565999989, 15.129002620000051 ], [ -91.26096692699997, 15.126507911000033 ], [ -91.263136819999943, 15.12730973500004 ], [ -91.268359637999936, 15.13052312800005 ], [ -91.272878497999955, 15.131720177000034 ], [ -91.27689959099996, 15.132134984000061 ], [ -91.278620694999972, 15.132794293000075 ], [ -91.280936918999942, 15.134288447000074 ], [ -91.283918460999985, 15.137364699000045 ], [ -91.28689955599998, 15.137686705000021 ], [ -91.287819418999959, 15.139070789000073 ], [ -91.291211438999937, 15.141451915000061 ], [ -91.29922579, 15.148599081000043 ], [ -91.303799437999942, 15.149856981000028 ], [ -91.305673875999958, 15.149621399000068 ], [ -91.307026462999943, 15.148680335000051 ], [ -91.308350799999971, 15.148877799000047 ], [ -91.309565138999972, 15.150331799000071 ], [ -91.309541673999945, 15.152774059000023 ], [ -91.310413013999948, 15.153850423000051 ], [ -91.312128451999968, 15.154528663000065 ], [ -91.313584349999985, 15.153834611000036 ], [ -91.315744538999979, 15.151445589000048 ], [ -91.317238651999958, 15.15069531000006 ], [ -91.318635532999963, 15.15069442600003 ], [ -91.320115623999982, 15.151940230000037 ], [ -91.320821945999967, 15.153816299000027 ], [ -91.322473093999974, 15.156015715000024 ], [ -91.324497546999964, 15.159482052000044 ], [ -91.326964502999942, 15.162375501000042 ], [ -91.328724111999975, 15.163666262000049 ], [ -91.330765862999954, 15.164135535000071 ], [ -91.33238357099998, 15.165578863000064 ], [ -91.332166550999943, 15.167666113000053 ], [ -91.332775652999942, 15.16883084400007 ], [ -91.332204045999958, 15.170003782000038 ], [ -91.33036268699999, 15.171040790000063 ], [ -91.330545929999971, 15.174220048000052 ], [ -91.329790463999984, 15.175619820000065 ], [ -91.33004757499998, 15.176577466000026 ], [ -91.330897709999988, 15.177268376000029 ], [ -91.330893153999966, 15.178884972000048 ], [ -91.330348380999965, 15.180042284000024 ], [ -91.329113502999974, 15.180569744000024 ], [ -91.328247080999972, 15.181577802000049 ], [ -91.328710777999959, 15.183630550000032 ], [ -91.329478128999938, 15.184422529000074 ], [ -91.330820648999975, 15.184707005000064 ], [ -91.330621354999948, 15.186530024000035 ], [ -91.331259627999941, 15.187984184000072 ], [ -91.331003587999987, 15.18925660900004 ], [ -91.329427782999971, 15.190378027000065 ], [ -91.326010707999956, 15.196699382000077 ], [ -91.324892476999935, 15.197468303000051 ], [ -91.323490836999952, 15.197443179000061 ], [ -91.322235080999974, 15.198021270000027 ], [ -91.319708812999977, 15.202359715000057 ], [ -91.316199781999956, 15.202103015000034 ], [ -91.314436562999958, 15.202411777000066 ], [ -91.31292558399997, 15.20260040900007 ], [ -91.311977826999964, 15.202404637000029 ], [ -91.311155140999972, 15.202354402000026 ], [ -91.310519362999969, 15.202499879000072 ], [ -91.309985392999977, 15.202789592000045 ], [ -91.309119428999963, 15.203133292000075 ], [ -91.308407568999939, 15.203117773000031 ], [ -91.30795640599996, 15.202724631000024 ], [ -91.307750046999956, 15.202050904000032 ], [ -91.307769448999977, 15.200420884000039 ], [ -91.30816265499999, 15.199838654000075 ], [ -91.308599439999966, 15.199553863000062 ], [ -91.309241551999946, 15.199269484000069 ], [ -91.309664793999957, 15.198785761000067 ], [ -91.309599398999978, 15.197429622000072 ], [ -91.309392767999952, 15.19642489000006 ], [ -91.308239930999946, 15.194669700000077 ], [ -91.306882345999952, 15.194011040000078 ], [ -91.305551395999942, 15.193587550000075 ], [ -91.304561194999962, 15.192594990000032 ], [ -91.30400741599999, 15.191435130000059 ], [ -91.301618393999945, 15.19007502900007 ], [ -91.299547206999989, 15.189195170000062 ], [ -91.299036630999979, 15.188600480000048 ], [ -91.298735466999972, 15.187495614000056 ], [ -91.299052991999986, 15.18655810100006 ], [ -91.299587943999938, 15.18585156000006 ], [ -91.299660906999975, 15.184874917000059 ], [ -91.299406422999937, 15.183751199000028 ], [ -91.297141618999945, 15.180622886000037 ], [ -91.296630876999984, 15.180632580000065 ], [ -91.29628551899998, 15.176917769000056 ], [ -91.295929242999989, 15.175943529000051 ], [ -91.295278991999965, 15.175292421000051 ], [ -91.29455805799995, 15.175115250000033 ], [ -91.293697658999974, 15.17579220500005 ], [ -91.292922443999942, 15.176073278000047 ], [ -91.292140034999989, 15.176091070000041 ], [ -91.291538677999938, 15.175870739000061 ], [ -91.291186287999949, 15.175284012000077 ], [ -91.291099386999974, 15.174663147000047 ], [ -91.291378185999974, 15.172828369000058 ], [ -91.288608376999946, 15.168883906000076 ], [ -91.288183015999948, 15.16775549700003 ], [ -91.287776392999945, 15.166900616000078 ], [ -91.28705931199994, 15.166610483000056 ], [ -91.286132468999938, 15.166874567000036 ], [ -91.285559914999965, 15.16698092200005 ], [ -91.285003703999962, 15.166936024000051 ], [ -91.284329776999982, 15.166415753000024 ], [ -91.28394613599994, 15.165814093000051 ], [ -91.282469857999956, 15.164834700000029 ], [ -91.280869759999973, 15.164569452000023 ], [ -91.279439559999958, 15.164079552000032 ], [ -91.278186031999951, 15.162816021000026 ], [ -91.276772415999972, 15.161717327000076 ], [ -91.275787528999956, 15.161323443000072 ], [ -91.27446605099999, 15.161988891000021 ], [ -91.273087918999977, 15.162539797000022 ], [ -91.272359951999988, 15.162306021000063 ], [ -91.27188412199996, 15.161746568000069 ], [ -91.27098228899996, 15.160795233000044 ], [ -91.27018600599996, 15.16081059000004 ], [ -91.26928155, 15.16132669700005 ], [ -91.268352892999985, 15.162029012000062 ], [ -91.267955054999959, 15.16274895600003 ], [ -91.267627797999978, 15.163656971000023 ], [ -91.266430239999977, 15.164669003000029 ], [ -91.265481794999971, 15.165298852000035 ], [ -91.264173347999986, 15.165429992000043 ], [ -91.263723561999939, 15.165102307000041 ], [ -91.263336484999968, 15.164145871000073 ], [ -91.263179604999948, 15.16313133500006 ], [ -91.261818160999951, 15.162490479000041 ], [ -91.26047631299997, 15.162085870000055 ], [ -91.259882173999983, 15.161632801000053 ], [ -91.25959755699995, 15.161021704000063 ], [ -91.258902712999941, 15.158022675000041 ], [ -91.257158058999948, 15.156673914000066 ], [ -91.253279774999953, 15.152771363000056 ], [ -91.252918728999987, 15.152052351000066 ], [ -91.252909361999968, 15.150997154000038 ], [ -91.253096538999955, 15.149943482000026 ], [ -91.253239018999977, 15.149234013000068 ], [ -91.253290238999966, 15.14859049100005 ], [ -91.253172766999967, 15.148094781000054 ], [ -91.25091673899999, 15.146078901000067 ], [ -91.24975062499999, 15.145322012000065 ], [ -91.248492623999937, 15.144779044000074 ], [ -91.243339123999988, 15.144374108000022 ], [ -91.242509051999946, 15.144687344000033 ], [ -91.241365935999966, 15.14495295100005 ], [ -91.240609905999975, 15.144679328000052 ], [ -91.240304278999986, 15.144227332000071 ], [ -91.240323740999941, 15.14356097700005 ], [ -91.240625461999969, 15.143007527000066 ], [ -91.240744562999964, 15.142387133000057 ], [ -91.240759207999986, 15.141669903000036 ], [ -91.240084315999979, 15.14072701200007 ], [ -91.239027422999982, 15.139568761000078 ], [ -91.23801670499995, 15.139156451000076 ], [ -91.23678741699996, 15.138525533000063 ], [ -91.236433425999962, 15.138157884000066 ], [ -91.23626876899999, 15.137677616000076 ], [ -91.236271743999964, 15.134437733000027 ], [ -91.235888880999937, 15.133203398000035 ], [ -91.235374676999982, 15.132452666000063 ], [ -91.234605786999964, 15.131702202000042 ], [ -91.233180195999978, 15.129716388000077 ], [ -91.231338944999948, 15.128424319000032 ], [ -91.230032163999965, 15.127191781000022 ], [ -91.228603024999984, 15.124871533000032 ], [ -91.227857203999974, 15.123800405000054 ], [ -91.226789986999961, 15.122992226000065 ], [ -91.225327322999988, 15.122891502000073 ], [ -91.223943893999945, 15.122493158000054 ], [ -91.223026533999985, 15.121985505000055 ], [ -91.221418640999957, 15.120197017000066 ], [ -91.219824749999987, 15.119451318000074 ], [ -91.218222312999956, 15.118964233000042 ], [ -91.216067901999963, 15.117667330000074 ], [ -91.214177139999947, 15.116897786000038 ], [ -91.209769270999971, 15.116422357000033 ], [ -91.208054836999963, 15.115777293000065 ], [ -91.205827276999969, 15.112681305000024 ], [ -91.20556057899995, 15.111416228000053 ], [ -91.206123495999975, 15.110503408000056 ], [ -91.208953778999955, 15.109880804000056 ], [ -91.209585917999959, 15.109377459000029 ], [ -91.212674822999986, 15.10404163100003 ], [ -91.213398965999943, 15.101989101000072 ] ] ] ] } },
{ "type": "Feature", "properties": { "Codigo": 506, "datos_finales_color_riesgo": "FFC8BF" }, "geometry": { "type": "MultiPolygon", "coordinates": [ [ [ [ -91.266092135999941, 14.337604148000025 ], [ -91.267786390999959, 14.33169883100004 ], [ -91.268200805999982, 14.326845007000031 ], [ -91.270665817999941, 14.323683818000063 ], [ -91.270856181999989, 14.321521707000045 ], [ -91.270298363999984, 14.317502460000071 ], [ -91.27151125499995, 14.315486750000048 ], [ -91.272307470999976, 14.31098703300006 ], [ -91.271952470999963, 14.309684091000065 ], [ -91.270397885999955, 14.30813517200005 ], [ -91.267609113999981, 14.307155694000073 ], [ -91.267248692999942, 14.305581563000032 ], [ -91.267433388999962, 14.301815145000035 ], [ -91.270253428999979, 14.299759168000037 ], [ -91.271103825999944, 14.29786282300006 ], [ -91.273562252999966, 14.296726058000047 ], [ -91.274784521999948, 14.295510256000057 ], [ -91.276572317999978, 14.292294334000076 ], [ -91.276393621999944, 14.290354354000044 ], [ -91.276022341999976, 14.288222048000023 ], [ -91.276360243999989, 14.287511610000024 ], [ -91.277263199999936, 14.286914850000073 ], [ -91.28003337499996, 14.287115648000054 ], [ -91.281734857999936, 14.285025429000029 ], [ -91.283383613999945, 14.275978792000046 ], [ -91.281964591999952, 14.274060370000029 ], [ -91.281775781999954, 14.272989112000062 ], [ -91.282913554999936, 14.271739877000073 ], [ -91.288242175999983, 14.268151633000059 ], [ -91.290237673999968, 14.263371175000032 ], [ -91.293167427999947, 14.26034289100005 ], [ -91.296971982999935, 14.255188910000072 ], [ -91.298271773999943, 14.253549832000033 ], [ -91.298676456999942, 14.250326051000059 ], [ -91.296841722999943, 14.246383570000035 ], [ -91.296596152999939, 14.243529110000054 ], [ -91.298136932999967, 14.241716628000063 ], [ -91.300337560999935, 14.240568628000062 ], [ -91.301718771999958, 14.240494854000076 ], [ -91.305373395999936, 14.23921591800007 ], [ -91.307022814999982, 14.237888819000034 ], [ -91.306945201999952, 14.236257979000072 ], [ -91.306239004999952, 14.235436134000054 ], [ -91.306112905999953, 14.234406001000025 ], [ -91.309432783999966, 14.231244640000057 ], [ -91.309420879999948, 14.229886544000067 ], [ -91.307873355999959, 14.227416030000029 ], [ -91.307899334999945, 14.225870659000066 ], [ -91.309089751999977, 14.224731215000077 ], [ -91.31436165599996, 14.222493053000051 ], [ -91.315419030999976, 14.222343468000076 ], [ -91.316855202999989, 14.223122978000049 ], [ -91.317840605999947, 14.222682515000031 ], [ -91.317762690999984, 14.219202190000033 ], [ -91.32019631199995, 14.21774943500003 ], [ -91.320740469999976, 14.214242971000033 ], [ -91.321946116999982, 14.211570418000065 ], [ -91.321373304999952, 14.208209760000045 ], [ -91.320175407999955, 14.207087369000021 ], [ -91.31920973199999, 14.206826381000042 ], [ -91.31883892799999, 14.203952955000034 ], [ -91.318550782999978, 14.202354524000043 ], [ -91.317388152999968, 14.201166842000077 ], [ -91.315800488999969, 14.199279079000064 ], [ -91.315362231999984, 14.197468317000073 ], [ -91.315920708999954, 14.195940239000038 ], [ -91.318827354999939, 14.192181486000038 ], [ -91.318973643999982, 14.19150237100007 ], [ -91.319033511999976, 14.190842988000043 ], [ -91.317733895999936, 14.188609285000041 ], [ -91.317713176999973, 14.188043109000034 ], [ -91.318310425999982, 14.188003242000036 ], [ -91.318957633999958, 14.18747 ], [ -91.318773970999985, 14.186151363000022 ], [ -91.32085015499996, 14.183965068000077 ], [ -91.323935320999965, 14.183140449000064 ], [ -91.325384037999982, 14.18376180100006 ], [ -91.326250713999968, 14.183141945000045 ], [ -91.328454309999984, 14.182202643000039 ], [ -91.329841865999981, 14.179632967000032 ], [ -91.331203743999936, 14.178827863000038 ], [ -91.333108362999951, 14.178703280000036 ], [ -91.333548911999969, 14.177997954000034 ], [ -91.333583244999943, 14.175833477000026 ], [ -91.334259471999985, 14.174488053000061 ], [ -91.335373737999987, 14.172698265000065 ], [ -91.335367338999959, 14.170796749000033 ], [ -91.334609607999937, 14.168238113000029 ], [ -91.336816196999962, 14.167181235000044 ], [ -91.33669155299998, 14.163786414000072 ], [ -91.336404154999968, 14.162547279000023 ], [ -91.337491308999972, 14.161687118000032 ], [ -91.33817720199994, 14.16178790400005 ], [ -91.338236796999979, 14.156698506000055 ], [ -91.338708599999961, 14.156144773000051 ], [ -91.338830639999969, 14.153452143000038 ], [ -91.338239008999949, 14.152572441000075 ], [ -91.337872405999974, 14.150442463000047 ], [ -91.338713153999947, 14.149464215000023 ], [ -91.343822313999965, 14.147272636000025 ], [ -91.346232961999988, 14.146702872000049 ], [ -91.350893693999978, 14.145989239000073 ], [ -91.355285108999965, 14.146578613000031 ], [ -91.356070600999942, 14.146268770000063 ], [ -91.359596083999975, 14.142889840000066 ], [ -91.362018473999967, 14.140427527000043 ], [ -91.364427214999978, 14.139381898000067 ], [ -91.366583377999973, 14.137304122000046 ], [ -91.367615485999977, 14.13706822100005 ], [ -91.36777697499997, 14.136259229000075 ], [ -91.367215315999943, 14.134736922000059 ], [ -91.367529994999984, 14.134282607000046 ], [ -91.369375224999942, 14.133098641000061 ], [ -91.3703558, 14.133105291000049 ], [ -91.370507308999947, 14.130687348000038 ], [ -91.373216764999938, 14.128849381000066 ], [ -91.374643941999977, 14.126284138000074 ], [ -91.376000758999965, 14.125391696000065 ], [ -91.377471101999959, 14.124161061000052 ], [ -91.382070588999966, 14.123770613000033 ], [ -91.386685613999987, 14.121747562000053 ], [ -91.389956186999939, 14.121083660000068 ], [ -91.396360821999963, 14.112950871000066 ], [ -91.399388321999936, 14.108197413000028 ], [ -91.400275533999945, 14.107551387000058 ], [ -91.403311764999955, 14.103100722000022 ], [ -91.40619978899997, 14.099803734000034 ], [ -91.408498188999943, 14.09580229900007 ], [ -91.410048144999962, 14.094222824000042 ], [ -91.413797304999946, 14.088478482000028 ], [ -91.41941600399997, 14.081677469000056 ], [ -91.422027070999945, 14.077845127000046 ], [ -91.422945219999974, 14.076543881000077 ], [ -91.423511161999954, 14.050791202000028 ], [ -91.42389902299999, 14.04865602700005 ], [ -91.424886876999949, 14.047125849000054 ], [ -91.424907703999963, 14.041708276000065 ], [ -91.426243343999943, 14.039492263000056 ], [ -91.426319064999973, 14.038148214000046 ], [ -91.427011877999973, 14.037106461000064 ], [ -91.427985224999986, 14.03658966100005 ], [ -91.428487728999983, 14.035705980000046 ], [ -91.428532884999981, 14.030012863000024 ], [ -91.427400747999968, 14.022250087000032 ], [ -91.425500245999956, 14.018480923000027 ], [ -91.425081810999984, 14.015526986000054 ], [ -91.426053711999941, 14.014274628000067 ], [ -91.42894681699994, 14.012043835000043 ], [ -91.434623002999956, 14.007572376000041 ], [ -91.436209584999972, 14.00516129600004 ], [ -91.437058638999986, 14.005375800000024 ], [ -91.437534417999984, 14.005518973000051 ], [ -91.438366431999953, 14.005943517000048 ], [ -91.438936764999937, 14.006307621000076 ], [ -91.439530391999938, 14.006649278000054 ], [ -91.44103970499998, 14.007451033000052 ], [ -91.442441962999965, 14.008170743000051 ], [ -91.443725208999979, 14.008865951000075 ], [ -91.444414740999946, 14.00923080900003 ], [ -91.445080521999955, 14.009514164000052 ], [ -91.445544583999947, 14.009680973000059 ], [ -91.446270979999952, 14.009813307000059 ], [ -91.447152431999939, 14.009946635000063 ], [ -91.447771710999973, 14.010090706000028 ], [ -91.448307366999984, 14.010280566000063 ], [ -91.448961242999985, 14.01052880900005 ], [ -91.449734640999964, 14.010813966000057 ], [ -91.450721758999975, 14.011239466000063 ], [ -91.451257, 14.011405591000027 ], [ -91.451768941999944, 14.011595292000038 ], [ -91.453268294999987, 14.012081679000062 ], [ -91.453683728999977, 14.012340814000027 ], [ -91.454205921999971, 14.012728308000021 ], [ -91.45476383099998, 14.013139754000065 ], [ -91.455262851999976, 14.01344574500007 ], [ -91.455773678999947, 14.013716784000053 ], [ -91.456474819999983, 14.014081685000065 ], [ -91.457402370999944, 14.014506781000023 ], [ -91.458329967999987, 14.014839220000056 ], [ -91.45897221499996, 14.015099790000022 ], [ -91.459591366999973, 14.015266432000033 ], [ -91.460186876999956, 14.015421623000066 ], [ -91.460900834999961, 14.015601293000032 ], [ -91.461544058999948, 14.015803108000057 ], [ -91.462364786999956, 14.016111129000024 ], [ -91.462887630999944, 14.016404828000077 ], [ -91.463386091999951, 14.016710802000034 ], [ -91.46419416599997, 14.017182570000045 ], [ -91.464788832999943, 14.017465421000054 ], [ -91.465240477999942, 14.017677313000036 ], [ -91.465812077999942, 14.017774714000041 ], [ -91.46652624699999, 14.018011995000052 ], [ -91.467238871999939, 14.018482020000022 ], [ -91.467950608999956, 14.018999492000034 ], [ -91.46866509099999, 14.019190442000024 ], [ -91.469356509999955, 14.01919481300007 ], [ -91.469857115999957, 14.019266901000037 ], [ -91.470691096999985, 14.019412274000047 ], [ -91.471238213999982, 14.019625888000064 ], [ -91.472022485999958, 14.020026298000062 ], [ -91.474758230999953, 14.021161009000025 ], [ -91.476661226999965, 14.021965041000044 ], [ -91.479539928999941, 14.023101730000064 ], [ -91.481347957999958, 14.023833951000029 ], [ -91.482704470999977, 14.024331699000072 ], [ -91.483965825999974, 14.024782521000077 ], [ -91.485749577999968, 14.025515689000031 ], [ -91.48986589399999, 14.027124389000051 ], [ -91.49160238799999, 14.027834622000057 ], [ -91.493339934999938, 14.02847366900005 ], [ -91.494862694999938, 14.029042443000037 ], [ -91.496695304999946, 14.029659462000041 ], [ -91.500329013999988, 14.031206244000032 ], [ -91.500792341999954, 14.031411367000032 ], [ -91.501342207999983, 14.031656573000078 ], [ -91.502263205999952, 14.032047571000021 ], [ -91.503881591999971, 14.03260106700003 ], [ -91.504623132999939, 14.03282598100003 ], [ -91.505185151999967, 14.032983122000076 ], [ -91.506455862999985, 14.033255367000038 ], [ -91.507591617999935, 14.033548241000062 ], [ -91.508726234999983, 14.034017368000036 ], [ -91.50928769099994, 14.034262629000068 ], [ -91.510409750999941, 14.034885339000027 ], [ -91.512003377999974, 14.035785513000064 ], [ -91.513003327999968, 14.036143061000075 ], [ -91.514441689999956, 14.036625330000049 ], [ -91.515981116999967, 14.037139848000038 ], [ -91.516925511999943, 14.037410038000075 ], [ -91.517633245999946, 14.037677646000077 ], [ -91.518981305999944, 14.038257638000061 ], [ -91.521395558999984, 14.039339047000055 ], [ -91.523620277999953, 14.040200069000036 ], [ -91.525282607999941, 14.040868950000061 ], [ -91.526304747999973, 14.041293250000024 ], [ -91.528509329999963, 14.041780109000058 ], [ -91.529768563999937, 14.042051036000032 ], [ -91.530679225999961, 14.042353739000077 ], [ -91.531702225999936, 14.042645822000054 ], [ -91.53282607899996, 14.043004048000057 ], [ -91.533883290999938, 14.043286160000036 ], [ -91.53444550599994, 14.043420638000043 ], [ -91.534974339999962, 14.043435143000067 ], [ -91.535537821999981, 14.043461154000056 ], [ -91.536247065999987, 14.043498216000046 ], [ -91.537080145999937, 14.043536026000027 ], [ -91.538011758999971, 14.04382301000004 ], [ -91.538589366999986, 14.044359824000026 ], [ -91.537512737999975, 14.045311484000024 ], [ -91.537076027999944, 14.045643299000062 ], [ -91.535763576999955, 14.046638720000033 ], [ -91.534847122999963, 14.047333717000072 ], [ -91.533621159999939, 14.04855789100003 ], [ -91.532877003999943, 14.049275392000027 ], [ -91.531996149999941, 14.051010115000054 ], [ -91.530891185999963, 14.053763781000043 ], [ -91.530495378999944, 14.05448339000003 ], [ -91.530272638999975, 14.05528879600007 ], [ -91.530397156999982, 14.056181055000025 ], [ -91.530611495999949, 14.056691949000026 ], [ -91.531214605999935, 14.057587120000051 ], [ -91.532514712999955, 14.058359973000051 ], [ -91.53464420499995, 14.058670068000026 ], [ -91.535686041999952, 14.059015359000057 ], [ -91.536487114999943, 14.059636019000038 ], [ -91.536917611999968, 14.060286069000028 ], [ -91.537185559999955, 14.060924965000027 ], [ -91.537320222999938, 14.061955137000041 ], [ -91.537228151999955, 14.062782808000065 ], [ -91.537006229999974, 14.063461673000063 ], [ -91.536763775999987, 14.064001434000033 ], [ -91.536433667999972, 14.064582471000051 ], [ -91.534767307999971, 14.066695477000053 ], [ -91.53209215399994, 14.070076877000076 ], [ -91.530647658999953, 14.071512118000044 ], [ -91.529682820999938, 14.072694910000052 ], [ -91.52944105399996, 14.073122805000025 ], [ -91.52927159699999, 14.074099144000058 ], [ -91.529257413999972, 14.074597350000033 ], [ -91.529339572999959, 14.075415907000036 ], [ -91.529409961999988, 14.076264900000069 ], [ -91.529645966999965, 14.07682903400007 ], [ -91.530087871999967, 14.077415891000044 ], [ -91.531080403999965, 14.07860495500006 ], [ -91.532159210999964, 14.079970807000052 ], [ -91.532934957999942, 14.08112238700005 ], [ -91.533169727999962, 14.081881988000077 ], [ -91.53327307699999, 14.082737961000078 ], [ -91.53296400499994, 14.083372221000047 ], [ -91.532483224999964, 14.083794143000034 ], [ -91.531086119999941, 14.084592397000051 ], [ -91.527420039999981, 14.086395973000037 ], [ -91.525501389999988, 14.087106261000031 ], [ -91.524148471999979, 14.087777057000039 ], [ -91.52349400099996, 14.088113152000062 ], [ -91.523100254999974, 14.088407907000033 ], [ -91.522224335999965, 14.089336974000048 ], [ -91.521522629999936, 14.090265974000033 ], [ -91.520162561999939, 14.092041751000068 ], [ -91.518236453999975, 14.093897653000056 ], [ -91.515829167999982, 14.096133611000027 ], [ -91.514431936999983, 14.096931752000046 ], [ -91.51189928299999, 14.098317204000068 ], [ -91.509934053999984, 14.099493714000062 ], [ -91.508840675999977, 14.10037956900004 ], [ -91.50809516399994, 14.101266446000068 ], [ -91.507478798999955, 14.102409476000048 ], [ -91.507035823999956, 14.103680127000075 ], [ -91.506233331999965, 14.106647918000021 ], [ -91.50493192, 14.112710783000068 ], [ -91.503918293999959, 14.118038730000023 ], [ -91.503728647999935, 14.118802490000064 ], [ -91.503451043999974, 14.11964931600005 ], [ -91.503053085999966, 14.12057674600004 ], [ -91.502262147999943, 14.121845215000064 ], [ -91.500842605999935, 14.123367382000026 ], [ -91.500447464999979, 14.123772810000048 ], [ -91.499696492999988, 14.12423816300003 ], [ -91.499176103999957, 14.124321920000057 ], [ -91.497625733999939, 14.124778886000058 ], [ -91.496963277999953, 14.125251563000063 ], [ -91.494162003999975, 14.127719803000048 ], [ -91.49116915799999, 14.12990884900006 ], [ -91.487491484999964, 14.132437030000062 ], [ -91.487114241999961, 14.132756673000074 ], [ -91.486735316999955, 14.133330532000059 ], [ -91.486538076999977, 14.133917961000066 ], [ -91.486406000999978, 14.134981482000057 ], [ -91.486422393999987, 14.137667328000077 ], [ -91.486525253999957, 14.144434870000055 ], [ -91.486521141999958, 14.145056282000041 ], [ -91.486457216999952, 14.146142830000031 ], [ -91.486317349999979, 14.146719319000056 ], [ -91.485763640999949, 14.147892040000045 ], [ -91.484893911999961, 14.150449136000077 ], [ -91.484591970999986, 14.151456217000032 ], [ -91.484358271999952, 14.152386897000042 ], [ -91.484114532999968, 14.153084757000045 ], [ -91.483906347999948, 14.153659683000058 ], [ -91.483698310999955, 14.154125011000076 ], [ -91.483306716999948, 14.154942835000043 ], [ -91.481998383999951, 14.156754808000073 ], [ -91.477244957999972, 14.161983163000059 ], [ -91.469985627999961, 14.167960358000073 ], [ -91.467254094999987, 14.170007201000033 ], [ -91.460981894999975, 14.176179069000057 ], [ -91.460660684999937, 14.176587151000035 ], [ -91.460050922999983, 14.177626105000058 ], [ -91.459556632999977, 14.178455645000042 ], [ -91.458290513999941, 14.180655271000035 ], [ -91.457963645999939, 14.181984155000066 ], [ -91.457480995999958, 14.184343606000027 ], [ -91.456852760999936, 14.186480663000054 ], [ -91.455814015999977, 14.188782291000052 ], [ -91.455336928999941, 14.189715875000047 ], [ -91.454949622999948, 14.190473778000069 ], [ -91.454292092999935, 14.191800518000036 ], [ -91.453692400999955, 14.193050800000037 ], [ -91.452968236999936, 14.194211016000054 ], [ -91.452532744999985, 14.194729070000051 ], [ -91.449341280999988, 14.19749353800006 ], [ -91.448643440999945, 14.198099145000072 ], [ -91.448299815999974, 14.198474292000071 ], [ -91.44787394399998, 14.199192383000025 ], [ -91.44765350299997, 14.19984514500004 ], [ -91.447523440999987, 14.200576454000043 ], [ -91.447488528999941, 14.202385139000057 ], [ -91.447597331999987, 14.203073931000063 ], [ -91.448023310999986, 14.204041596000025 ], [ -91.448361123999973, 14.204520590000072 ], [ -91.448756440999944, 14.20488922800007 ], [ -91.44925417799999, 14.205269829000031 ], [ -91.449843132999945, 14.205605825000077 ], [ -91.450331454999969, 14.20575361300007 ], [ -91.450989642999957, 14.205957859000023 ], [ -91.451886181999953, 14.206196415000022 ], [ -91.452381214999946, 14.206975835000037 ], [ -91.452284379999981, 14.207846334000067 ], [ -91.451996057999963, 14.20843313000006 ], [ -91.451548197999955, 14.209061824000059 ], [ -91.451010242999985, 14.209569041000066 ], [ -91.450278844999957, 14.210079520000022 ], [ -91.449560942999938, 14.210308750000024 ], [ -91.448421384999961, 14.21063354000006 ], [ -91.447567251999942, 14.210883347000049 ], [ -91.446746248999943, 14.211200029000054 ], [ -91.446287842999936, 14.211673851000057 ], [ -91.446046231999958, 14.212116318000028 ], [ -91.44582569499994, 14.212780374000033 ], [ -91.445693744999971, 14.213446136000073 ], [ -91.445363136999958, 14.215556826000068 ], [ -91.445356698999944, 14.21649909000007 ], [ -91.445432773999983, 14.216976384000077 ], [ -91.445757396999966, 14.217777306000073 ], [ -91.446352798999953, 14.218869234000067 ], [ -91.44812507499995, 14.222408174000066 ], [ -91.449444305999975, 14.224279879000051 ], [ -91.449745544999985, 14.224946192000061 ], [ -91.449847035999937, 14.225519692000034 ], [ -91.449900013999979, 14.226413757000046 ], [ -91.449893843999973, 14.22731873500004 ], [ -91.449874341999987, 14.228395368000065 ], [ -91.44982211599995, 14.229174635000049 ], [ -91.44967584599999, 14.229731837000031 ], [ -91.449314217999984, 14.23129547800005 ], [ -91.449002856999982, 14.232875263000039 ], [ -91.448621866999986, 14.234812760000068 ], [ -91.448288885999943, 14.237012693000054 ], [ -91.448043105999943, 14.238739783000028 ], [ -91.44793032299998, 14.240581852000048 ], [ -91.448220933999949, 14.24204239200003 ], [ -91.448584233999952, 14.242697811000028 ], [ -91.449014725999973, 14.243352540000046 ], [ -91.449809728999981, 14.244401696000068 ], [ -91.450106663999975, 14.245022787000039 ], [ -91.450404264999975, 14.245546715000046 ], [ -91.450766465999948, 14.246364827000036 ], [ -91.451044920999948, 14.247148498000058 ], [ -91.451222633999976, 14.248096476000057 ], [ -91.451266215999965, 14.249009686000022 ], [ -91.451260209999987, 14.249889809000024 ], [ -91.451172693999979, 14.250492587000053 ], [ -91.450932806999958, 14.251355371000045 ], [ -91.450525644999971, 14.252201254000056 ], [ -91.450001940999982, 14.252979714000048 ], [ -91.449495686999967, 14.253662248000069 ], [ -91.449156936999941, 14.254327793000073 ], [ -91.448902913999973, 14.254799552000065 ], [ -91.448731405999979, 14.255401782000035 ], [ -91.448716884999953, 14.256339470000057 ], [ -91.448963097999979, 14.257264167000073 ], [ -91.449294432999977, 14.257938587000069 ], [ -91.450017824999975, 14.259217773000046 ], [ -91.450529852999978, 14.260150976000034 ], [ -91.451256975999968, 14.261394027000051 ], [ -91.451934398999981, 14.262622064000027 ], [ -91.452395163999938, 14.263684866000062 ], [ -91.452738814999975, 14.264763852000044 ], [ -91.452935575999959, 14.265384294000057 ], [ -91.453131643999939, 14.266021677000026 ], [ -91.453345403999947, 14.266528113000049 ], [ -91.453991703999975, 14.267396650000023 ], [ -91.454525122999939, 14.267661107000038 ], [ -91.455444226999987, 14.267684014000054 ], [ -91.456181388999937, 14.267460557000049 ], [ -91.45698618299997, 14.267172005000077 ], [ -91.457505135999952, 14.267094015000055 ], [ -91.458090591999962, 14.267032270000072 ], [ -91.458826090999935, 14.26705284600007 ], [ -91.45942723099995, 14.267155033000051 ], [ -91.460061305999943, 14.267354596000075 ], [ -91.460793813999942, 14.267815793000068 ], [ -91.461389533999977, 14.268716753000035 ], [ -91.461485892999974, 14.269369306000044 ], [ -91.461498703999951, 14.269956918000048 ], [ -91.461494722999987, 14.27054329200007 ], [ -91.461356041999977, 14.27126099000003 ], [ -91.461034171999984, 14.271829492000052 ], [ -91.460543929999972, 14.272625137000034 ], [ -91.459985716999938, 14.273534460000064 ], [ -91.458453768999959, 14.275123307000058 ], [ -91.456836818999989, 14.276857342000028 ], [ -91.456297819999975, 14.277408610000066 ], [ -91.455658168999946, 14.278023628000028 ], [ -91.454730928999936, 14.279102278000039 ], [ -91.454444205999948, 14.279524115000072 ], [ -91.454155899999989, 14.280092823000075 ], [ -91.453968581999959, 14.280548070000066 ], [ -91.453781171999935, 14.281101614000022 ], [ -91.453727437999987, 14.281590495000046 ], [ -91.453707768999948, 14.282095414000025 ], [ -91.453884372999937, 14.283124733000022 ], [ -91.454047104999972, 14.283810484000071 ], [ -91.454508467999972, 14.284791937000023 ], [ -91.454704217999961, 14.285477903000071 ], [ -91.454700099999968, 14.286081222000064 ], [ -91.454645833999962, 14.28673279700007 ], [ -91.454540274999943, 14.287515105000068 ], [ -91.454312553999955, 14.28896549600006 ], [ -91.454222680999976, 14.289910603000067 ], [ -91.454212771999948, 14.291361278000068 ], [ -91.45436026699997, 14.291818700000022 ], [ -91.455041651999977, 14.29239483300006 ], [ -91.45559248699999, 14.292576926000038 ], [ -91.456143847999954, 14.292597452000052 ], [ -91.457281426999941, 14.292539300000044 ], [ -91.457967190999966, 14.292559564000044 ], [ -91.458752250999964, 14.29263018100005 ], [ -91.459520761999954, 14.292749273000027 ], [ -91.45998771699999, 14.292914997000025 ], [ -91.46040418399997, 14.293178689000058 ], [ -91.46081909899999, 14.293670605000045 ], [ -91.461283612999978, 14.294195605000027 ], [ -91.461848228999941, 14.294738202000076 ], [ -91.462514320999958, 14.295182022000063 ], [ -91.462996638999982, 14.295560255000055 ], [ -91.463411233999977, 14.296100747000025 ], [ -91.463707898999985, 14.296690192000028 ], [ -91.463903818999938, 14.29744168700006 ], [ -91.463917126999945, 14.297955859000069 ], [ -91.464060084999971, 14.298999647000073 ], [ -91.464106047999962, 14.29965300300006 ], [ -91.463968467999962, 14.300205747000064 ], [ -91.463595620999968, 14.30093774900007 ], [ -91.463089512999943, 14.301586408000048 ], [ -91.462516555999969, 14.30226740300003 ], [ -91.461706978999985, 14.303240626000047 ], [ -91.460948345999952, 14.304132825000067 ], [ -91.460425859999987, 14.304716969000026 ], [ -91.460004511999955, 14.30525205400005 ], [ -91.459665555999948, 14.305853204000073 ], [ -91.459392351999952, 14.306667194000056 ], [ -91.459404931999984, 14.307286437000073 ], [ -91.459903904999976, 14.307943860000023 ], [ -91.460123771999974, 14.308410787000071 ], [ -91.460158591999971, 14.309252756000035 ], [ -91.459840851999957, 14.309715071000028 ], [ -91.459443215999954, 14.309999477000076 ], [ -91.458669315999941, 14.310322119000034 ], [ -91.458201236999969, 14.310486302000072 ], [ -91.457672589999959, 14.310611677000054 ], [ -91.457164827999975, 14.310647925000069 ], [ -91.455600440999945, 14.310836620000032 ], [ -91.454634644999942, 14.311007729000039 ], [ -91.45316192699994, 14.311176667000041 ], [ -91.452308002999985, 14.311339455000052 ], [ -91.45118969899994, 14.311614633000033 ], [ -91.450010705999944, 14.311784333000048 ], [ -91.449389495999981, 14.312058226000033 ], [ -91.448868151999989, 14.312637826000071 ], [ -91.448600299999953, 14.313171630000056 ], [ -91.44835147799995, 14.313971072000072 ], [ -91.448185014999979, 14.314504405000037 ], [ -91.447977216999959, 14.315235194000024 ], [ -91.447770636999962, 14.315788602000055 ], [ -91.447574244999942, 14.31629236200007 ], [ -91.447142474999964, 14.317071398000053 ], [ -91.446875234999936, 14.317514813000059 ], [ -91.446260694999978, 14.318332198000064 ], [ -91.44552424599999, 14.319183808000048 ], [ -91.444708521999985, 14.31968351300003 ], [ -91.443986074999941, 14.319930738000039 ], [ -91.442907763999983, 14.320280704000027 ], [ -91.442042692999962, 14.320541675000072 ], [ -91.440781950999963, 14.320880266000074 ], [ -91.439937648999944, 14.321237403000055 ], [ -91.438353780999989, 14.321718477000047 ], [ -91.43751102799996, 14.32101356000004 ], [ -91.435582239999974, 14.320936460000041 ], [ -91.434980680999956, 14.320375483000078 ], [ -91.434523890999969, 14.316064365000045 ], [ -91.433784583999966, 14.314983879000067 ], [ -91.434020157999953, 14.313094067000065 ], [ -91.430086327999959, 14.287142652000057 ], [ -91.429418699999985, 14.284512483000071 ], [ -91.427969134999955, 14.282790068000054 ], [ -91.427214937999963, 14.28262012700003 ], [ -91.420621953999955, 14.284318703000054 ], [ -91.411738726999943, 14.289769824000075 ], [ -91.411060807999945, 14.289956242000073 ], [ -91.407715292999967, 14.290878424000027 ], [ -91.402589635999959, 14.294583820000071 ], [ -91.396278474999974, 14.297155787000065 ], [ -91.390282508999974, 14.301900104000026 ], [ -91.387146998999981, 14.304940682000051 ], [ -91.380971023999962, 14.309526456000071 ], [ -91.377685312999972, 14.310780747000024 ], [ -91.374917323999966, 14.31052909400006 ], [ -91.372310647999939, 14.309599490000039 ], [ -91.368592650999972, 14.310622468000076 ], [ -91.363540330999967, 14.316296678000072 ], [ -91.369616975999975, 14.331875671000034 ], [ -91.369938435999984, 14.333573733000037 ], [ -91.369206768999959, 14.334360704000062 ], [ -91.363685373999942, 14.334570122000059 ], [ -91.36197524399995, 14.329909153000074 ], [ -91.359658557999978, 14.324533337000048 ], [ -91.358116390999953, 14.320694884000034 ], [ -91.356558374999963, 14.318961151000053 ], [ -91.354006465999987, 14.31894348000003 ], [ -91.353413682999985, 14.319514444000049 ], [ -91.35211809399999, 14.320568606000052 ], [ -91.345424986999944, 14.323867418000077 ], [ -91.327491360999943, 14.334287270000061 ], [ -91.325514190999968, 14.335110500000042 ], [ -91.324248125999986, 14.33481346700006 ], [ -91.32473960599998, 14.331358645000023 ], [ -91.322138692999943, 14.328100033000055 ], [ -91.31901464799995, 14.325781068000026 ], [ -91.313062647999971, 14.321241173000033 ], [ -91.31231932899999, 14.320856283000069 ], [ -91.311000432999947, 14.321207308000055 ], [ -91.308786203999944, 14.323060213000076 ], [ -91.307597467999983, 14.32513506600003 ], [ -91.301962211999978, 14.328893153000024 ], [ -91.29894269, 14.332336563000069 ], [ -91.296981077999988, 14.334391117000052 ], [ -91.295639781999967, 14.334703473000047 ], [ -91.292867408999939, 14.33448244300007 ], [ -91.283903046999967, 14.331628378000062 ], [ -91.280903535999983, 14.331951249000042 ], [ -91.279986290999943, 14.332877791000044 ], [ -91.280353637999951, 14.335306067000033 ], [ -91.281526222999958, 14.338051992000032 ], [ -91.281119975999957, 14.340117655000029 ], [ -91.266092135999941, 14.337604148000025 ] ] ] ] } },
{ "type": "Feature", "properties": { "Codigo": 1910, "datos_finales_color_riesgo": "FFC8BF" }, "geometry": { "type": "MultiPolygon", "coordinates": [ [ [ [ -89.651109086999952, 14.91134971300005 ], [ -89.651587826999958, 14.911457648000066 ], [ -89.652527600999974, 14.911265462000074 ], [ -89.653306554999972, 14.911033544000077 ], [ -89.653495120999935, 14.910838574000024 ], [ -89.653696693999962, 14.910748008000041 ], [ -89.653842563999945, 14.910881415000063 ], [ -89.655021778999981, 14.910944889000064 ], [ -89.657130113999983, 14.910930251000025 ], [ -89.658786587999941, 14.911139032000051 ], [ -89.661178998999958, 14.896957498000063 ], [ -89.662391542999956, 14.890225831000066 ], [ -89.662636861999943, 14.888979300000074 ], [ -89.663706843999989, 14.883210036000037 ], [ -89.664132592999977, 14.881108410000024 ], [ -89.66439758599995, 14.879056031000061 ], [ -89.66645319099996, 14.878074551000054 ], [ -89.669033024999976, 14.87563162400005 ], [ -89.672564487999978, 14.87358954900003 ], [ -89.685544371999981, 14.862469872000077 ], [ -89.694144343999938, 14.856222323000054 ], [ -89.694527678999975, 14.855506718000072 ], [ -89.696245929999975, 14.854825001000052 ], [ -89.69872980699995, 14.856669775000057 ], [ -89.704761389999987, 14.859460431000059 ], [ -89.708867959999964, 14.86268943400006 ], [ -89.714513218999969, 14.865613155000062 ], [ -89.71778851, 14.866782952000051 ], [ -89.722758694999982, 14.870552289000045 ], [ -89.726526239999941, 14.872636376000059 ], [ -89.727625349999983, 14.872697209000023 ], [ -89.728990128999953, 14.874069825000049 ], [ -89.72878514599995, 14.875581423000028 ], [ -89.728208557999949, 14.875573193000037 ], [ -89.725205492999976, 14.878376521000064 ], [ -89.721640449999938, 14.882923262000077 ], [ -89.720003616999975, 14.886568742000065 ], [ -89.719599344999949, 14.888973529000054 ], [ -89.717436507999935, 14.892786363000027 ], [ -89.717458894999936, 14.899270168000044 ], [ -89.717044395999949, 14.901119550000033 ], [ -89.717452259999959, 14.903801176000059 ], [ -89.717982460999963, 14.905877401000055 ], [ -89.719475156999977, 14.908310511000025 ], [ -89.722855178999964, 14.911112614000047 ], [ -89.727733910999973, 14.912974605000045 ], [ -89.730941691999988, 14.915551831000073 ], [ -89.732695848999981, 14.916364635000036 ], [ -89.739244687999985, 14.91743658300004 ], [ -89.740029108999977, 14.917639625000049 ], [ -89.742848153999944, 14.920073494000064 ], [ -89.743027531999985, 14.92122493100004 ], [ -89.743309994999947, 14.922005410000054 ], [ -89.742472883999937, 14.925411909000047 ], [ -89.742622458999961, 14.92838555700007 ], [ -89.744406659999981, 14.93195130600003 ], [ -89.746260589999963, 14.933974159000059 ], [ -89.749486477999938, 14.940780238000059 ], [ -89.74922782499999, 14.947008531000051 ], [ -89.74816444399994, 14.952828091000072 ], [ -89.74574987599999, 14.954255160000059 ], [ -89.744780796999976, 14.956739981000055 ], [ -89.743365680999943, 14.957588776000023 ], [ -89.740083810999977, 14.959672620000049 ], [ -89.727724970999986, 14.963986123000041 ], [ -89.722828125999968, 14.963168693000057 ], [ -89.720478567999976, 14.961413882000045 ], [ -89.717092200999957, 14.960588720000032 ], [ -89.715154067999947, 14.960749275000069 ], [ -89.711137282999971, 14.963241864000054 ], [ -89.704475848999948, 14.96327771600005 ], [ -89.69913422799999, 14.962068539000029 ], [ -89.692469966999965, 14.961955040000078 ], [ -89.689509081999972, 14.962574507000056 ], [ -89.686241088999964, 14.964594463000026 ], [ -89.684640624999986, 14.964951499000051 ], [ -89.682498178999936, 14.966167331000065 ], [ -89.675977499999988, 14.967429926000023 ], [ -89.675151985999946, 14.968117554000059 ], [ -89.67406781599999, 14.968302609000034 ], [ -89.67283299199994, 14.966178814000045 ], [ -89.670316826999965, 14.964044208000075 ], [ -89.66506936799999, 14.957821766000052 ], [ -89.662971942999945, 14.954517349000071 ], [ -89.662302981999972, 14.951729231000058 ], [ -89.661143059999972, 14.94999019200003 ], [ -89.65844872699995, 14.943565800000044 ], [ -89.658356450999975, 14.940305393000074 ], [ -89.660145321999948, 14.937061222000068 ], [ -89.660741174999941, 14.934443950000059 ], [ -89.661635133999937, 14.933450409000045 ], [ -89.661564521999935, 14.931824359000075 ], [ -89.659173342999964, 14.929180344000031 ], [ -89.656511210999952, 14.927812050000057 ], [ -89.653436958999976, 14.925516857000048 ], [ -89.650656383999944, 14.922773422000034 ], [ -89.651249808999978, 14.921812755000076 ], [ -89.651109086999952, 14.91134971300005 ] ] ] ] } }
]
}
