{
"type": "FeatureCollection",
"name": "color_pelyexp_muy_bajo",
"crs": { "type": "name", "properties": { "name": "urn:ogc:def:crs:OGC:1.3:CRS84" } },
"features": [
{ "type": "Feature", "properties": { "Codigo": 1910, "datos_finales_color_riesgo": "FDE6D7" }, "geometry": { "type": "MultiPolygon", "coordinates": [ [ [ [ -89.651109086999952, 14.91134971300005 ], [ -89.651587826999958, 14.911457648000066 ], [ -89.652527600999974, 14.911265462000074 ], [ -89.653306554999972, 14.911033544000077 ], [ -89.653495120999935, 14.910838574000024 ], [ -89.653696693999962, 14.910748008000041 ], [ -89.653842563999945, 14.910881415000063 ], [ -89.655021778999981, 14.910944889000064 ], [ -89.657130113999983, 14.910930251000025 ], [ -89.658786587999941, 14.911139032000051 ], [ -89.661178998999958, 14.896957498000063 ], [ -89.662391542999956, 14.890225831000066 ], [ -89.662636861999943, 14.888979300000074 ], [ -89.663706843999989, 14.883210036000037 ], [ -89.664132592999977, 14.881108410000024 ], [ -89.66439758599995, 14.879056031000061 ], [ -89.66645319099996, 14.878074551000054 ], [ -89.669033024999976, 14.87563162400005 ], [ -89.672564487999978, 14.87358954900003 ], [ -89.685544371999981, 14.862469872000077 ], [ -89.694144343999938, 14.856222323000054 ], [ -89.694527678999975, 14.855506718000072 ], [ -89.696245929999975, 14.854825001000052 ], [ -89.69872980699995, 14.856669775000057 ], [ -89.704761389999987, 14.859460431000059 ], [ -89.708867959999964, 14.86268943400006 ], [ -89.714513218999969, 14.865613155000062 ], [ -89.71778851, 14.866782952000051 ], [ -89.722758694999982, 14.870552289000045 ], [ -89.726526239999941, 14.872636376000059 ], [ -89.727625349999983, 14.872697209000023 ], [ -89.728990128999953, 14.874069825000049 ], [ -89.72878514599995, 14.875581423000028 ], [ -89.728208557999949, 14.875573193000037 ], [ -89.725205492999976, 14.878376521000064 ], [ -89.721640449999938, 14.882923262000077 ], [ -89.720003616999975, 14.886568742000065 ], [ -89.719599344999949, 14.888973529000054 ], [ -89.717436507999935, 14.892786363000027 ], [ -89.717458894999936, 14.899270168000044 ], [ -89.717044395999949, 14.901119550000033 ], [ -89.717452259999959, 14.903801176000059 ], [ -89.717982460999963, 14.905877401000055 ], [ -89.719475156999977, 14.908310511000025 ], [ -89.722855178999964, 14.911112614000047 ], [ -89.727733910999973, 14.912974605000045 ], [ -89.730941691999988, 14.915551831000073 ], [ -89.732695848999981, 14.916364635000036 ], [ -89.739244687999985, 14.91743658300004 ], [ -89.740029108999977, 14.917639625000049 ], [ -89.742848153999944, 14.920073494000064 ], [ -89.743027531999985, 14.92122493100004 ], [ -89.743309994999947, 14.922005410000054 ], [ -89.742472883999937, 14.925411909000047 ], [ -89.742622458999961, 14.92838555700007 ], [ -89.744406659999981, 14.93195130600003 ], [ -89.746260589999963, 14.933974159000059 ], [ -89.749486477999938, 14.940780238000059 ], [ -89.74922782499999, 14.947008531000051 ], [ -89.74816444399994, 14.952828091000072 ], [ -89.74574987599999, 14.954255160000059 ], [ -89.744780796999976, 14.956739981000055 ], [ -89.743365680999943, 14.957588776000023 ], [ -89.740083810999977, 14.959672620000049 ], [ -89.727724970999986, 14.963986123000041 ], [ -89.722828125999968, 14.963168693000057 ], [ -89.720478567999976, 14.961413882000045 ], [ -89.717092200999957, 14.960588720000032 ], [ -89.715154067999947, 14.960749275000069 ], [ -89.711137282999971, 14.963241864000054 ], [ -89.704475848999948, 14.96327771600005 ], [ -89.69913422799999, 14.962068539000029 ], [ -89.692469966999965, 14.961955040000078 ], [ -89.689509081999972, 14.962574507000056 ], [ -89.686241088999964, 14.964594463000026 ], [ -89.684640624999986, 14.964951499000051 ], [ -89.682498178999936, 14.966167331000065 ], [ -89.675977499999988, 14.967429926000023 ], [ -89.675151985999946, 14.968117554000059 ], [ -89.67406781599999, 14.968302609000034 ], [ -89.67283299199994, 14.966178814000045 ], [ -89.670316826999965, 14.964044208000075 ], [ -89.66506936799999, 14.957821766000052 ], [ -89.662971942999945, 14.954517349000071 ], [ -89.662302981999972, 14.951729231000058 ], [ -89.661143059999972, 14.94999019200003 ], [ -89.65844872699995, 14.943565800000044 ], [ -89.658356450999975, 14.940305393000074 ], [ -89.660145321999948, 14.937061222000068 ], [ -89.660741174999941, 14.934443950000059 ], [ -89.661635133999937, 14.933450409000045 ], [ -89.661564521999935, 14.931824359000075 ], [ -89.659173342999964, 14.929180344000031 ], [ -89.656511210999952, 14.927812050000057 ], [ -89.653436958999976, 14.925516857000048 ], [ -89.650656383999944, 14.922773422000034 ], [ -89.651249808999978, 14.921812755000076 ], [ -89.651109086999952, 14.91134971300005 ] ] ] ] } },
{ "type": "Feature", "properties": { "Codigo": 2213, "datos_finales_color_riesgo": "FDE6D7" }, "geometry": { "type": "MultiPolygon", "coordinates": [ [ [ [ -89.949959766999939, 13.980689692000055 ], [ -89.951405737999949, 13.979865758000074 ], [ -89.952829379999969, 13.979200701000025 ], [ -89.953790251999976, 13.978959905000067 ], [ -89.954674230999956, 13.978852474000064 ], [ -89.95581634499996, 13.978717798000048 ], [ -89.957582761999959, 13.978576271000065 ], [ -89.958185620999984, 13.977826382000046 ], [ -89.958500900999979, 13.977013056000033 ], [ -89.958862216999989, 13.976126933000046 ], [ -89.959131455999966, 13.975298353000028 ], [ -89.959829684999988, 13.973094580000065 ], [ -89.96001365799998, 13.971848389000058 ], [ -89.960206396999979, 13.971078677000037 ], [ -89.960457661999953, 13.970473380000044 ], [ -89.961014642999942, 13.969737574000021 ], [ -89.961628387999951, 13.96934451900006 ], [ -89.962131535999958, 13.969231156000035 ], [ -89.963152432999948, 13.969081376000076 ], [ -89.96394645099997, 13.968867793000072 ], [ -89.964438451999968, 13.968458531000067 ], [ -89.964687572999935, 13.968015753000032 ], [ -89.965337389999945, 13.96716256600007 ], [ -89.965985455999942, 13.966442561000065 ], [ -89.966831129999946, 13.965770174000056 ], [ -89.967812209999977, 13.965172849000055 ], [ -89.96863799, 13.964827570000068 ], [ -89.96962902599995, 13.964661578000062 ], [ -89.970843852999963, 13.964795263000042 ], [ -89.972057133999954, 13.965047449000053 ], [ -89.97284762399994, 13.965102458000047 ], [ -89.973653535999972, 13.965083151000044 ], [ -89.974462560999939, 13.964869719000035 ], [ -89.97486459299995, 13.964355454000042 ], [ -89.975133759999949, 13.963570867000044 ], [ -89.975830240999983, 13.961485516000039 ], [ -89.976271618999988, 13.960258304000035 ], [ -89.976964505999945, 13.959642670000051 ], [ -89.977660395999976, 13.959904190000032 ], [ -89.978080849999969, 13.960324839000066 ], [ -89.978894404999949, 13.960915188000058 ], [ -89.979667948999975, 13.961072688000058 ], [ -89.980429748999939, 13.960978302000058 ], [ -89.981009917999984, 13.960807152000029 ], [ -89.981622259999938, 13.960517873000072 ], [ -89.98289278499999, 13.959880044000045 ], [ -89.983704096999986, 13.959489371000075 ], [ -89.984179300999983, 13.959167901000058 ], [ -89.985672889999989, 13.957775358000049 ], [ -89.986639447999949, 13.957133734000024 ], [ -89.987488869999936, 13.957322625000074 ], [ -89.98807362499997, 13.957954136000069 ], [ -89.988879335999968, 13.957993472000055 ], [ -89.989492242999972, 13.957614995000029 ], [ -89.991410519999988, 13.955113476000065 ], [ -89.992281129999981, 13.954827359000035 ], [ -89.993159060999972, 13.95522429500005 ], [ -89.993911023999942, 13.955887214000029 ], [ -89.99466760699994, 13.956149437000022 ], [ -89.99516975399996, 13.95615564700006 ], [ -89.996142462999956, 13.956197023000072 ], [ -89.997131722999939, 13.956165223000028 ], [ -89.997831879999978, 13.956099368000025 ], [ -89.998502558999974, 13.955989121000073 ], [ -89.999575361999973, 13.955664833000071 ], [ -89.999957923999943, 13.955176239000025 ], [ -90.000249092999979, 13.954693287000055 ], [ -90.00048278, 13.954231074000063 ], [ -90.000780842999973, 13.953528074000076 ], [ -90.001017125999965, 13.952864952000027 ], [ -90.001273892999961, 13.952181764000045 ], [ -90.001611990999947, 13.951600047000056 ], [ -90.002304582999955, 13.950821759000064 ], [ -90.002991649999956, 13.950426093000033 ], [ -90.003906380999979, 13.950033229000042 ], [ -90.004363483999953, 13.949857111000028 ], [ -90.005048705999968, 13.949603653000054 ], [ -90.006231335999985, 13.949275038000053 ], [ -90.00675105199997, 13.949038727000072 ], [ -90.00754393699998, 13.948503236000022 ], [ -90.007842282999945, 13.947820546000059 ], [ -90.007981820999987, 13.946590653000044 ], [ -90.008054057999971, 13.94578438800005 ], [ -90.008144296999944, 13.945240247000072 ], [ -90.00835839399997, 13.944636672000058 ], [ -90.008737016999987, 13.94413671600006 ], [ -90.009196692999978, 13.94375967700006 ], [ -90.009739275999948, 13.943362209000043 ], [ -90.010219241999948, 13.943024927000067 ], [ -90.01148680099999, 13.942515572000048 ], [ -90.012561020999954, 13.942569406000075 ], [ -90.013673941999969, 13.942804335000062 ], [ -90.01433190099999, 13.943095765000066 ], [ -90.01486876599995, 13.94314186500003 ], [ -90.015490582999973, 13.943008385000041 ], [ -90.015948694999963, 13.942752102000043 ], [ -90.016537279999966, 13.942011996000076 ], [ -90.017125803999988, 13.941231246000029 ], [ -90.017989793999959, 13.939970706000054 ], [ -90.018847513999958, 13.939152608000029 ], [ -90.019452718999958, 13.938736687000073 ], [ -90.020221570999979, 13.938402923000069 ], [ -90.021277573999953, 13.938254420000021 ], [ -90.02225178599997, 13.938084593000042 ], [ -90.023351660999936, 13.937714224000047 ], [ -90.024435451999977, 13.937020791000066 ], [ -90.025103509999951, 13.936524339000073 ], [ -90.02573436099999, 13.93568424700004 ], [ -90.026329878999945, 13.934398933000068 ], [ -90.02680270899998, 13.932991325000046 ], [ -90.027277594999987, 13.931422305000069 ], [ -90.027527666999958, 13.929628147000074 ], [ -90.027894203999949, 13.928441630000066 ], [ -90.028437484999984, 13.927984281000022 ], [ -90.02906029799999, 13.927769487000035 ], [ -90.029662628999972, 13.927574762000063 ], [ -90.030139377999944, 13.927439464000031 ], [ -90.030784273999984, 13.927124462000052 ], [ -90.031058889999898, 13.926662701000055 ], [ -90.031107440999961, 13.926119162000077 ], [ -90.031014345999949, 13.925309729000048 ], [ -90.030714388999968, 13.924498903000028 ], [ -90.030287699999974, 13.923928121000074 ], [ -90.029678315999945, 13.923093200000039 ], [ -90.029070756999943, 13.922116061000054 ], [ -90.028850339999963, 13.921547791000023 ], [ -90.028805287999944, 13.920235454000021 ], [ -90.029027869999936, 13.919006535000051 ], [ -90.029368161999969, 13.918243030000042 ], [ -90.029935817999956, 13.917503744000044 ], [ -90.030501940999955, 13.916884100000061 ], [ -90.031024904999981, 13.916385852000076 ], [ -90.031688375999977, 13.916242662000059 ], [ -90.032288034999965, 13.916209325000068 ], [ -90.033032712999955, 13.916177754000046 ], [ -90.033962075999966, 13.916209387000038 ], [ -90.034725998999988, 13.916299968000033 ], [ -90.03561687499996, 13.916404506000049 ], [ -90.037031762999959, 13.941071498000042 ], [ -90.038722293999967, 13.959528336000062 ], [ -90.043166472999985, 13.973503103000041 ], [ -90.054488351999964, 13.99207719900005 ], [ -90.061746136999943, 13.997055784000054 ], [ -90.072095666999985, 14.001319715000022 ], [ -90.072094746999937, 14.002030933000071 ], [ -90.069297224999957, 14.022034578000046 ], [ -90.069279464999966, 14.024751707000064 ], [ -90.068846433999965, 14.025388824000061 ], [ -90.068382288999942, 14.029154967000068 ], [ -90.06713293699994, 14.053537146000053 ], [ -90.066587874999982, 14.055155054000068 ], [ -90.065463556999987, 14.056490463000046 ], [ -90.064943073999984, 14.056950383000071 ], [ -90.062119549999977, 14.059355649000054 ], [ -90.060590006999973, 14.061130889000026 ], [ -90.059436408999943, 14.062263822000034 ], [ -90.056103391999955, 14.066742255000065 ], [ -90.05277521499994, 14.06993032400004 ], [ -90.04812465599997, 14.076615318000052 ], [ -90.045534459999942, 14.079684708000059 ], [ -90.044196548999935, 14.082454451000046 ], [ -90.041596956999967, 14.085435605000043 ], [ -90.039653252999983, 14.085398187000067 ], [ -90.03871290799998, 14.084819924000044 ], [ -90.036189929999978, 14.081903440000076 ], [ -90.033196731999965, 14.079491416000053 ], [ -90.030433038999945, 14.077849842000035 ], [ -90.024493663999976, 14.076607084000045 ], [ -90.02215289899999, 14.075179493000064 ], [ -90.020540013999948, 14.073407537000037 ], [ -90.019853977999958, 14.072266787000046 ], [ -90.017603594999969, 14.070831253000051 ], [ -90.012902799999949, 14.069210713000075 ], [ -90.002573794999989, 14.067359933000034 ], [ -90.000727908999977, 14.06742052900006 ], [ -89.997284238999953, 14.066431704000024 ], [ -89.994869394999967, 14.066006534000053 ], [ -89.991988351999964, 14.065285416000052 ], [ -89.990734697999983, 14.064232363000031 ], [ -89.98743727699997, 14.063299421000067 ], [ -89.985916782999936, 14.062139162000051 ], [ -89.980490475999943, 14.061120838000022 ], [ -89.979315990999964, 14.060033733000068 ], [ -89.978698882999936, 14.057185825000033 ], [ -89.978777366999964, 14.054995711000061 ], [ -89.979095620999942, 14.050130963000072 ], [ -89.980271879999975, 14.047465779000049 ], [ -89.980718665999973, 14.043154632000039 ], [ -89.980699472999959, 14.041266952000058 ], [ -89.979523578999988, 14.039190976000043 ], [ -89.978883530999951, 14.03575578400006 ], [ -89.979896873999962, 14.033161927000037 ], [ -89.979713464999975, 14.032202368000071 ], [ -89.979739269999982, 14.028688574000057 ], [ -89.974848194999936, 14.021701966000023 ], [ -89.972922230999984, 14.018996870000024 ], [ -89.971763045999978, 14.017641299000047 ], [ -89.969821481999986, 14.016085159000056 ], [ -89.969436577999943, 14.015505759000064 ], [ -89.96653747299996, 14.012212740000052 ], [ -89.962099525999975, 14.006602089000069 ], [ -89.959878861999982, 14.002986788000044 ], [ -89.959762516999945, 14.001110333000042 ], [ -89.959262205999948, 14.000036176000037 ], [ -89.958426472999975, 13.998711724000032 ], [ -89.957586108999976, 13.997739408000029 ], [ -89.956974757999944, 13.996802704000061 ], [ -89.956657050999979, 13.995997243000033 ], [ -89.956009806999987, 13.995284724000044 ], [ -89.955365688999962, 13.994379213000059 ], [ -89.954784349999954, 13.993666389000055 ], [ -89.954234262999989, 13.993082647000051 ], [ -89.953456279999955, 13.992335744000059 ], [ -89.952777379999986, 13.991526871000076 ], [ -89.952661829999954, 13.990339019000032 ], [ -89.952646780999942, 13.989024873000062 ], [ -89.952655229999948, 13.988383803000033 ], [ -89.952316845999974, 13.986649054000054 ], [ -89.95211401499995, 13.984628159000067 ], [ -89.951190105999956, 13.982501124000066 ], [ -89.949959766999939, 13.980689692000055 ] ] ] ] } },
{ "type": "Feature", "properties": { "Codigo": 1103, "datos_finales_color_riesgo": "FDE6D7" }, "geometry": { "type": "MultiPolygon", "coordinates": [ [ [ [ -91.588600068999938, 14.600450314000057 ], [ -91.588740013999939, 14.599974348000046 ], [ -91.588818611999955, 14.598383936000062 ], [ -91.588806628999976, 14.596715012000061 ], [ -91.588859566999986, 14.593688352000072 ], [ -91.589015884999981, 14.590551585000071 ], [ -91.589295353999944, 14.587659619000021 ], [ -91.589560198999948, 14.585240987000077 ], [ -91.589747947999967, 14.584270414000059 ], [ -91.590014954999958, 14.58333308300007 ], [ -91.590386426999942, 14.581931998000073 ], [ -91.590954367999984, 14.580101606000028 ], [ -91.591440989999967, 14.578469581000036 ], [ -91.591869026999973, 14.577201029000037 ], [ -91.592285170999958, 14.575977600000044 ], [ -91.592623453999977, 14.574499476000028 ], [ -91.592745118999972, 14.573152243000038 ], [ -91.592884340999944, 14.570866172000024 ], [ -91.592907158999935, 14.569098021000059 ], [ -91.592946284999982, 14.568325407000032 ], [ -91.593128709999974, 14.566359357000067 ], [ -91.593183615999976, 14.564835455000036 ], [ -91.593246833999956, 14.563830229000075 ], [ -91.593479357999968, 14.562926579000077 ], [ -91.593804281999951, 14.561812194000026 ], [ -91.594117178999966, 14.560764401000029 ], [ -91.594627178999986, 14.55900030500004 ], [ -91.595019105999938, 14.558019648000027 ], [ -91.595815233999986, 14.555858412000077 ], [ -91.596484488999977, 14.552294207000045 ], [ -91.596845455999983, 14.550793605000024 ], [ -91.59747243399994, 14.548499145000051 ], [ -91.598056733999954, 14.545796536000068 ], [ -91.598384228999976, 14.544173699000055 ], [ -91.598894448999943, 14.542453652000063 ], [ -91.599412891999975, 14.541175446000068 ], [ -91.600239773999988, 14.539545420000024 ], [ -91.601121603999957, 14.538214014000062 ], [ -91.601954969999952, 14.537301507000052 ], [ -91.602880622999976, 14.536191814000063 ], [ -91.604182906999938, 14.534674206000034 ], [ -91.606113131999962, 14.532532098000047 ], [ -91.608364033999976, 14.529926353000064 ], [ -91.609417417999964, 14.528320228000041 ], [ -91.609751765999988, 14.527437494000026 ], [ -91.610085272999981, 14.526689212000065 ], [ -91.610578926999949, 14.525741887000038 ], [ -91.611382772999946, 14.524155740000026 ], [ -91.611868261999973, 14.522655836000069 ], [ -91.612114736999956, 14.52135338000005 ], [ -91.612270095999975, 14.520061684000041 ], [ -91.612308648999942, 14.519365888000038 ], [ -91.612125731999981, 14.515962651000052 ], [ -91.612102825999955, 14.515450667000039 ], [ -91.612213593999968, 14.514892018000069 ], [ -91.612240263999979, 14.514148696000063 ], [ -91.612178698999969, 14.513512192000064 ], [ -91.611725930999967, 14.512744565000048 ], [ -91.611358953999968, 14.512169529000062 ], [ -91.611210416999938, 14.511531383000033 ], [ -91.611259070999949, 14.510703446000036 ], [ -91.611915906999968, 14.510177405000036 ], [ -91.612768528999936, 14.509779069000047 ], [ -91.613295683999979, 14.509123447000036 ], [ -91.61332075699994, 14.508635474000073 ], [ -91.613347368999939, 14.50780740600004 ], [ -91.613527987999987, 14.506832231000033 ], [ -91.614037455999949, 14.505475957000044 ], [ -91.614634469999942, 14.504121327000064 ], [ -91.615165166999986, 14.502892856000074 ], [ -91.615764223999975, 14.501113387000032 ], [ -91.616031149999969, 14.500243799000032 ], [ -91.616494380999939, 14.499418302000038 ], [ -91.61755078799996, 14.497662990000038 ], [ -91.617991045999986, 14.496986503000073 ], [ -91.618540525999947, 14.496182978000036 ], [ -91.619351441999981, 14.495486067000058 ], [ -91.619876694999959, 14.495128713000042 ], [ -91.620227288999956, 14.494790669000054 ], [ -91.620513719999963, 14.494325694000054 ], [ -91.621178228999952, 14.492546592000053 ], [ -91.621668517999979, 14.49080826900007 ], [ -91.621783557999947, 14.489832696000065 ], [ -91.621700596999972, 14.489088725000045 ], [ -91.621508551999966, 14.488450326000077 ], [ -91.621099274999949, 14.48768410200006 ], [ -91.620996305999938, 14.486706121000054 ], [ -91.621544491999941, 14.486199746000068 ], [ -91.622157872999935, 14.48565194400004 ], [ -91.622271203999958, 14.484952060000069 ], [ -91.622711029999948, 14.484338833000038 ], [ -91.62356308699998, 14.483918975000051 ], [ -91.623872259999985, 14.483241705000069 ], [ -91.624292921999938, 14.482161706000056 ], [ -91.626274499999965, 14.478818567000076 ], [ -91.626480590999961, 14.477269524000064 ], [ -91.626898092999966, 14.476699092000047 ], [ -91.627577997999936, 14.475981042000058 ], [ -91.628150202999961, 14.475049936000062 ], [ -91.627913952999961, 14.474432754000077 ], [ -91.627287250999984, 14.473665272000062 ], [ -91.626963643999943, 14.473110852000048 ], [ -91.627250885999956, 14.472411978000025 ], [ -91.628018715999985, 14.47163116400003 ], [ -91.628369907999968, 14.471186894000027 ], [ -91.628743518999954, 14.470679477000033 ], [ -91.62924732, 14.470215756000073 ], [ -91.629903402999958, 14.46987947100007 ], [ -91.630493644999945, 14.469500994000043 ], [ -91.630910863999986, 14.468972361000056 ], [ -91.631197498999938, 14.468464433000065 ], [ -91.631723057999977, 14.468043769000076 ], [ -91.63229249699998, 14.467557824000039 ], [ -91.63277483, 14.467093970000064 ], [ -91.63306100899996, 14.466564568000024 ], [ -91.633131458999969, 14.465758213000072 ], [ -91.63287907199998, 14.464270899000041 ], [ -91.632841690999953, 14.46327296000004 ], [ -91.632933202999936, 14.46253000300004 ], [ -91.633263044999978, 14.462065261000077 ], [ -91.633485450999956, 14.461344531000066 ], [ -91.633315225999979, 14.460642991000043 ], [ -91.632993173999978, 14.459834356000044 ], [ -91.633105932999968, 14.459219202000043 ], [ -91.633479250999983, 14.458754712000029 ], [ -91.633135748999962, 14.457945953000035 ], [ -91.632550027999969, 14.45749623100005 ], [ -91.632335808999983, 14.456879181000033 ], [ -91.632360956999946, 14.456369730000063 ], [ -91.632276661999981, 14.455838178000022 ], [ -91.632106629999953, 14.455201043000045 ], [ -91.632175905999986, 14.454585637000037 ], [ -91.63233487399998, 14.453524432000052 ], [ -91.632384974999979, 14.452442259000065 ], [ -91.632584040999973, 14.451933818000043 ], [ -91.633237275999988, 14.451959078000073 ], [ -91.633804003999956, 14.452004173000034 ], [ -91.634351358999936, 14.451519220000023 ], [ -91.634660831999952, 14.450778654000032 ], [ -91.635209414999963, 14.450186362000068 ], [ -91.635754302999942, 14.450104774000067 ], [ -91.636342732999935, 14.450108181000076 ], [ -91.636930708999955, 14.450091245000067 ], [ -91.637761025999964, 14.449692665000043 ], [ -91.637874802999988, 14.44890689500005 ], [ -91.63807585099994, 14.448165696000046 ], [ -91.638274901999978, 14.447657248000041 ], [ -91.638913651999985, 14.446535533000031 ], [ -91.640079495999942, 14.444631558000026 ], [ -91.640542638999989, 14.443784526000059 ], [ -91.641526934999945, 14.443132583000022 ], [ -91.642029359999981, 14.442880115000037 ], [ -91.642882183999973, 14.442396899000073 ], [ -91.643845211999974, 14.441617141000052 ], [ -91.644417511999961, 14.440643044000069 ], [ -91.644533052999975, 14.439561236000031 ], [ -91.64458385599994, 14.438351375000025 ], [ -91.644762327999956, 14.437694781000062 ], [ -91.645048184999951, 14.437207166000064 ], [ -91.64544372499995, 14.436699839000028 ], [ -91.64605716599999, 14.43610902000006 ], [ -91.646540422999976, 14.435475643000075 ], [ -91.646848423999984, 14.434967813000071 ], [ -91.647223469999972, 14.434205 ], [ -91.647814037999979, 14.433847938000042 ], [ -91.648816010999951, 14.433810745000073 ], [ -91.649624158999984, 14.433518201000027 ], [ -91.649932018999948, 14.433031834000076 ], [ -91.650502470999982, 14.432356009000046 ], [ -91.651115123999944, 14.431891723000035 ], [ -91.652164592999952, 14.431281908000074 ], [ -91.652558759999977, 14.430902243000048 ], [ -91.652823262999959, 14.430394155000045 ], [ -91.653046966999966, 14.429440637000027 ], [ -91.653272587999936, 14.428167362000067 ], [ -91.653409779999947, 14.427042731000029 ], [ -91.653566057999967, 14.426407469000026 ], [ -91.653853346999938, 14.425771825000027 ], [ -91.653946927999982, 14.424668412000074 ], [ -91.654084944999966, 14.423501977000058 ], [ -91.654349183999955, 14.423035692000042 ], [ -91.65470036399995, 14.422571032000064 ], [ -91.654900245999954, 14.421913419000077 ], [ -91.654841181999984, 14.42093681700004 ], [ -91.654473962999987, 14.420403653000051 ], [ -91.653649646999952, 14.419826077000039 ], [ -91.65350140299995, 14.419124671000077 ], [ -91.653177535999987, 14.418613224000069 ], [ -91.65278785299995, 14.418154506000064 ], [ -91.652313394999965, 14.417429769000023 ], [ -91.652034284999957, 14.41670614800006 ], [ -91.651953205999973, 14.415729420000048 ], [ -91.652163160999976, 14.413395045000073 ], [ -91.652341591999971, 14.412737311000058 ], [ -91.65278034399995, 14.412166936000062 ], [ -91.65332800799996, 14.411703397000053 ], [ -91.654770098999961, 14.410946651000074 ], [ -91.656124980999948, 14.410232335000046 ], [ -91.656543285999987, 14.409492346000036 ], [ -91.65691850199994, 14.408687705000034 ], [ -91.65727054499996, 14.408073890000026 ], [ -91.657819586999949, 14.407376449000026 ], [ -91.658390200999975, 14.406657660000064 ], [ -91.658806339999956, 14.406278104000023 ], [ -91.659286450999957, 14.406153147000055 ], [ -91.660116439999967, 14.405775937000044 ], [ -91.660227741999961, 14.405288435000045 ], [ -91.660971292999989, 14.404824855000072 ], [ -91.66171104099999, 14.404998539000076 ], [ -91.662406482999984, 14.405214905000037 ], [ -91.66316825199999, 14.405389838000076 ], [ -91.664127132999965, 14.405267578000064 ], [ -91.664716715999987, 14.405058483000062 ], [ -91.666156267999952, 14.404716332000078 ], [ -91.667028328999947, 14.404572103000078 ], [ -91.667489504999935, 14.404023294000069 ], [ -91.667733804999955, 14.403196422000065 ], [ -91.667846428999951, 14.402581238000039 ], [ -91.668025426999975, 14.401818408000054 ], [ -91.668181391999951, 14.401224937000052 ], [ -91.668359812999938, 14.400460972000076 ], [ -91.668560752999952, 14.399613517000034 ], [ -91.668848217999937, 14.398934909000047 ], [ -91.66961367, 14.398387807000063 ], [ -91.670180074999962, 14.398369526000067 ], [ -91.671858466999936, 14.398209473000065 ], [ -91.672318161999954, 14.397808663000035 ], [ -91.672605858999987, 14.397088245000077 ], [ -91.672783879999898, 14.396388681000076 ], [ -91.673094019999951, 14.39549889400007 ], [ -91.673818067999946, 14.394696177000071 ], [ -91.674276626999983, 14.394486318000077 ], [ -91.674735684999973, 14.394191718000059 ], [ -91.675132132999977, 14.393407496000066 ], [ -91.675222657999939, 14.392898399000046 ], [ -91.675687463999964, 14.391627552000045 ], [ -91.675890312999968, 14.390450155000053 ], [ -91.676091339999971, 14.389581220000025 ], [ -91.676161712999942, 14.388753364000024 ], [ -91.676123248999943, 14.387903430000051 ], [ -91.675865359999989, 14.387307633000034 ], [ -91.675476938999964, 14.386732576000043 ], [ -91.675021822999952, 14.386263357000075 ], [ -91.674566793999986, 14.38587775700006 ], [ -91.674090175999936, 14.385418586000071 ], [ -91.673789513999964, 14.384706166000058 ], [ -91.673771081999973, 14.384195326000054 ], [ -91.67379641399998, 14.383536709000055 ], [ -91.673887305999983, 14.382964337000033 ], [ -91.674043238999957, 14.382370858000058 ], [ -91.674549743999989, 14.381397423000067 ], [ -91.675275415999977, 14.380211652000071 ], [ -91.675584636999986, 14.379471007000063 ], [ -91.675763708999966, 14.378686696000045 ], [ -91.675766589999967, 14.378197446000058 ], [ -91.675509581999961, 14.377453632000027 ], [ -91.675076385999944, 14.377004879000026 ], [ -91.674360741999976, 14.376491264000038 ], [ -91.673841616999937, 14.375872536000031 ], [ -91.673716600999967, 14.374958837000065 ], [ -91.674328661999937, 14.374558875000048 ], [ -91.675200349999955, 14.374457541000027 ], [ -91.676009500999953, 14.373952460000055 ], [ -91.67588277499999, 14.373229714000047 ], [ -91.67547147199997, 14.372803683000029 ], [ -91.67525632, 14.37233468200003 ], [ -91.675156067999978, 14.370954453000024 ], [ -91.675798602999976, 14.365373843000043 ], [ -91.676715709999939, 14.364933769000061 ], [ -91.677176201999941, 14.364383795000037 ], [ -91.677331855999967, 14.363833250000027 ], [ -91.67779591599998, 14.362773688000061 ], [ -91.67845601, 14.361588662000031 ], [ -91.678940878999981, 14.360635430000059 ], [ -91.679053684999985, 14.359978427000044 ], [ -91.67925603599997, 14.35887559300005 ], [ -91.679521129999955, 14.358239778000041 ], [ -91.679788832999975, 14.357158776000063 ], [ -91.679860710999947, 14.355969339000069 ], [ -91.68014943899999, 14.355057946000045 ], [ -91.680545654999946, 14.354296304000059 ], [ -91.680527070999972, 14.353808062000041 ], [ -91.680311795999955, 14.353360534000046 ], [ -91.680012078999937, 14.352488803000028 ], [ -91.680124133999982, 14.351958348000039 ], [ -91.680434419999983, 14.351025605000075 ], [ -91.680638488999989, 14.34962560200006 ], [ -91.680228217999968, 14.349028963000023 ], [ -91.679904121999982, 14.348560489000022 ], [ -91.679887718999964, 14.347700503000056 ], [ -91.680391498999938, 14.347172229000023 ], [ -91.68063525299999, 14.346515955000029 ], [ -91.680667134999965, 14.344731937000063 ], [ -91.681174341999963, 14.343715540000062 ], [ -91.681743087999962, 14.343273501000056 ], [ -91.681682082999941, 14.342508184000053 ], [ -91.681423965999954, 14.341955331000065 ], [ -91.681341023999948, 14.341274638000073 ], [ -91.681452608999962, 14.340723842000045 ], [ -91.681716680999955, 14.340257507000047 ], [ -91.682309422999936, 14.339475483000058 ], [ -91.682793969999977, 14.338565172000074 ], [ -91.683341299999938, 14.33801679100003 ], [ -91.683975637999936, 14.337552510000023 ], [ -91.684914262999939, 14.33717579000006 ], [ -91.685394835999944, 14.336944552000034 ], [ -91.685853875999953, 14.336629579000032 ], [ -91.686269954999943, 14.336228489000064 ], [ -91.687297592999982, 14.33549066300003 ], [ -91.687865569999985, 14.335175156000048 ], [ -91.688480055999946, 14.334435042000052 ], [ -91.688398851999978, 14.333352094000077 ], [ -91.688401813999974, 14.332842501000073 ], [ -91.688579772999958, 14.33223330900006 ], [ -91.690990337999949, 14.329635283000073 ], [ -91.69153898199994, 14.328852987000062 ], [ -91.691650868999943, 14.328343991000054 ], [ -91.691700483999966, 14.327282103000073 ], [ -91.691750427999978, 14.326263155000049 ], [ -91.691886089999969, 14.325350897000021 ], [ -91.692195292999941, 14.324588748000053 ], [ -91.693137298999943, 14.323616519000041 ], [ -91.694187359999944, 14.322795165000059 ], [ -91.69478074899996, 14.321885418000022 ], [ -91.695198134999941, 14.321250415000065 ], [ -91.695744047999938, 14.320934765000061 ], [ -91.697794673999965, 14.320330186000035 ], [ -91.700192692999963, 14.319770429000073 ], [ -91.702550875999975, 14.318679346000067 ], [ -91.703555601999938, 14.318175219000068 ], [ -91.70466916099997, 14.317586931000051 ], [ -91.705349041999966, 14.316740904000028 ], [ -91.705941670999948, 14.31595315900006 ], [ -91.706362696999975, 14.315383687000065 ], [ -91.707192812999949, 14.314202872000067 ], [ -91.708815775999938, 14.312173235000046 ], [ -91.710435676999964, 14.310674655000071 ], [ -91.711399584999981, 14.309597373000031 ], [ -91.712100944999975, 14.308837316000051 ], [ -91.713150639999981, 14.308056543000077 ], [ -91.714876144999948, 14.307132524000053 ], [ -91.717172951999942, 14.30589744200006 ], [ -91.718306071999962, 14.305112572000041 ], [ -91.719890889999988, 14.30365101700005 ], [ -91.723230509999951, 14.300573977000056 ], [ -91.724521555999956, 14.299413639000022 ], [ -91.725346130999981, 14.298674537000068 ], [ -91.726359946999935, 14.297766949000049 ], [ -91.72751797899997, 14.29707256100005 ], [ -91.72856589099996, 14.296590016000039 ], [ -91.729178004999937, 14.296125475000053 ], [ -91.729703087999951, 14.295683069000063 ], [ -91.730449396999973, 14.298250970000026 ], [ -91.730443555999955, 14.299291647000075 ], [ -91.730627584999979, 14.301394386000027 ], [ -91.731407164999951, 14.306091337000055 ], [ -91.731892628999958, 14.308790049000038 ], [ -91.733136072999969, 14.31612231400004 ], [ -91.733617519999939, 14.319543057000033 ], [ -91.733930509999936, 14.322006944000066 ], [ -91.734098245999974, 14.323197701000026 ], [ -91.734312425999974, 14.323856489000036 ], [ -91.734695907999935, 14.325324111000043 ], [ -91.734822950999956, 14.325919156000054 ], [ -91.734861515999967, 14.326895659000058 ], [ -91.734356002999959, 14.331585751000034 ], [ -91.734270654999989, 14.332441817000074 ], [ -91.734101819999978, 14.334131359000025 ], [ -91.733945251999955, 14.334874047000028 ], [ -91.733505070999968, 14.335763249000024 ], [ -91.733131931999935, 14.336270875000025 ], [ -91.732824748999974, 14.33669410400006 ], [ -91.732538525999985, 14.337202195000032 ], [ -91.732352683999977, 14.337996703000044 ], [ -91.732096572999978, 14.338611170000036 ], [ -91.731545905999951, 14.339669272000037 ], [ -91.731019375999949, 14.34045291700005 ], [ -91.730536925999957, 14.341023230000076 ], [ -91.72994541099996, 14.34161443000005 ], [ -91.727887676999956, 14.343557124000029 ], [ -91.72604542299996, 14.345818476000034 ], [ -91.725780829999962, 14.346391080000046 ], [ -91.725092158999985, 14.348786306000022 ], [ -91.724738477999949, 14.349739227000043 ], [ -91.724256707999984, 14.350182974000063 ], [ -91.723753859999988, 14.350562195000066 ], [ -91.723251390999962, 14.35077192500006 ], [ -91.721745015999943, 14.35142257900003 ], [ -91.720129447999966, 14.352114442000072 ], [ -91.719582765999974, 14.352556697000068 ], [ -91.719209443999944, 14.353085766000049 ], [ -91.71885645399999, 14.353912123000043 ], [ -91.718392968999979, 14.354907379000053 ], [ -91.718083433999936, 14.355733969000028 ], [ -91.717948933999935, 14.356455290000042 ], [ -91.71798692699997, 14.361284970000042 ], [ -91.717742768999983, 14.362027168000054 ], [ -91.717151016999935, 14.362746012000059 ], [ -91.716275893999978, 14.36335710000003 ], [ -91.714984776999984, 14.364454075000026 ], [ -91.714044497999964, 14.365106612000034 ], [ -91.713506304999953, 14.365475446000062 ], [ -91.712076739999986, 14.36645526600006 ], [ -91.710959082999977, 14.367616437000038 ], [ -91.710106726999982, 14.36829429200003 ], [ -91.709429051999962, 14.368627330000038 ], [ -91.70746623499997, 14.369105896000065 ], [ -91.706394605999947, 14.369411912000032 ], [ -91.705677278999985, 14.369584266000061 ], [ -91.704915428999982, 14.369537163000075 ], [ -91.704022594999969, 14.369490469000027 ], [ -91.702888827999971, 14.369717034000075 ], [ -91.702407583999957, 14.370054515000049 ], [ -91.702013857999987, 14.37039134500003 ], [ -91.70153163399999, 14.370898311000076 ], [ -91.700830885999949, 14.371510295000064 ], [ -91.699147874999937, 14.372605022000073 ], [ -91.696921329999952, 14.373379226000054 ], [ -91.69592804499996, 14.373962463000055 ], [ -91.695435472999975, 14.374251279000077 ], [ -91.694384043999946, 14.375264702000038 ], [ -91.69229448499999, 14.377392169000075 ], [ -91.690847955999971, 14.378868932000046 ], [ -91.689409511999941, 14.380545729000062 ], [ -91.68779436799997, 14.382702895000023 ], [ -91.687125014999936, 14.383781676000069 ], [ -91.686685659999966, 14.384479807000048 ], [ -91.68642017799999, 14.385178903000053 ], [ -91.686219856999969, 14.38583542300006 ], [ -91.685952619999966, 14.386833945000035 ], [ -91.685686097999962, 14.387808740000025 ], [ -91.685463452999954, 14.388614289000031 ], [ -91.685248395999963, 14.389113661000067 ], [ -91.685044303999973, 14.389621004000048 ], [ -91.684169174999965, 14.391289593000067 ], [ -91.683815742999968, 14.392157686000076 ], [ -91.683637424999972, 14.392815454000072 ], [ -91.683523940999976, 14.393684883000049 ], [ -91.683474665999938, 14.394576140000026 ], [ -91.683415319999938, 14.396097849000057 ], [ -91.683323774999963, 14.396882654000024 ], [ -91.682883882999988, 14.397665517000064 ], [ -91.682573318999971, 14.398534978000043 ], [ -91.682437428999947, 14.399467557000037 ], [ -91.682536303999939, 14.401187890000074 ], [ -91.68270034599999, 14.402866778000032 ], [ -91.682888993999939, 14.404204557000071 ], [ -91.682927604999975, 14.405033024000033 ], [ -91.682540142999983, 14.407940481000026 ], [ -91.68238022, 14.409213039000065 ], [ -91.68226763199999, 14.409828233000042 ], [ -91.682043950999969, 14.410803258000044 ], [ -91.681844042999955, 14.411481241000047 ], [ -91.680866204999973, 14.414724377000027 ], [ -91.680776133999984, 14.415254950000076 ], [ -91.680750936999971, 14.415892097000039 ], [ -91.680769015999942, 14.416465082000059 ], [ -91.68093787, 14.41742196000007 ], [ -91.681368947999943, 14.418146404000026 ], [ -91.68131413399999, 14.41899016800005 ], [ -91.681073085999969, 14.420352666000042 ], [ -91.680870162999952, 14.421540234000076 ], [ -91.680561052999963, 14.422154325000065 ], [ -91.679925038999954, 14.422957551000025 ], [ -91.679246340999953, 14.423526634000041 ], [ -91.678590089999943, 14.423926351000034 ], [ -91.677761303999944, 14.424092330000065 ], [ -91.677129457999968, 14.424088789000052 ], [ -91.676402348999943, 14.424019174000023 ], [ -91.675798333999978, 14.424505052000029 ], [ -91.675577612999973, 14.424971608000021 ], [ -91.675486771999942, 14.42562872600007 ], [ -91.675460223999949, 14.426393548000021 ], [ -91.67543213099998, 14.427517684000065 ], [ -91.675338946999943, 14.428473093000036 ], [ -91.675269251999964, 14.429279480000048 ], [ -91.675263853999979, 14.430192443000067 ], [ -91.675281659999939, 14.43080836200005 ], [ -91.67551174, 14.432486490000031 ], [ -91.675976636999962, 14.434846160000063 ], [ -91.676037000999941, 14.435716554000066 ], [ -91.676033606999965, 14.436290546000066 ], [ -91.67594351799994, 14.436819983000078 ], [ -91.675699748999989, 14.437455902000067 ], [ -91.67525961199999, 14.438260210000067 ], [ -91.67477566299999, 14.439022460000047 ], [ -91.673940540999979, 14.440248269000051 ], [ -91.67339140699994, 14.44105195700007 ], [ -91.672663785999987, 14.442428648000032 ], [ -91.672198701999946, 14.443720941000038 ], [ -91.671932585999969, 14.444504750000021 ], [ -91.67181968899996, 14.445162869000058 ], [ -91.671746066999958, 14.446626854000044 ], [ -91.671782865999944, 14.447752484000034 ], [ -91.671609596999986, 14.451254318000053 ], [ -91.671579996999981, 14.452528723000057 ], [ -91.67170295599999, 14.453887602000066 ], [ -91.672129519999942, 14.455377010000063 ], [ -91.67255881799997, 14.456504849000055 ], [ -91.672903597999948, 14.457122608000077 ], [ -91.67327053799994, 14.457719024000028 ], [ -91.673702995999975, 14.458315810000045 ], [ -91.674547439999969, 14.459148810000045 ], [ -91.675000851999982, 14.459830457000066 ], [ -91.675017852999986, 14.460679137000056 ], [ -91.674988266999947, 14.461953541000071 ], [ -91.674804266999956, 14.463650805000043 ], [ -91.675016218999986, 14.464671204000069 ], [ -91.67732616, 14.468293227000061 ], [ -91.677473367999937, 14.469185576000029 ], [ -91.67746959499999, 14.469822841000052 ], [ -91.67742309199997, 14.47033218200005 ], [ -91.677113264999946, 14.471052472000054 ], [ -91.676410808999947, 14.471982981000053 ], [ -91.674392125999987, 14.474285728000041 ], [ -91.672219343999984, 14.476948035000078 ], [ -91.670722753999939, 14.479487587000051 ], [ -91.670327307999969, 14.479973486000063 ], [ -91.669494894999957, 14.480712274000041 ], [ -91.669036019999965, 14.480943575000026 ], [ -91.668424656999946, 14.481172879000042 ], [ -91.667026756999974, 14.481738965000034 ], [ -91.66669453899999, 14.482607130000076 ], [ -91.666468531999953, 14.483943691000036 ], [ -91.666200431999982, 14.485046116000035 ], [ -91.665935499999989, 14.485617488000059 ], [ -91.665606006999951, 14.48612521900003 ], [ -91.66508096299998, 14.486462347000042 ], [ -91.664295936999963, 14.486542632000067 ], [ -91.663751268999988, 14.486476260000074 ], [ -91.662922120999951, 14.486662502000058 ], [ -91.662743721999959, 14.487403853000046 ], [ -91.662718504999987, 14.487934779000057 ], [ -91.662693416999957, 14.488444235000031 ], [ -91.662625040999956, 14.489016722000031 ], [ -91.662445921999961, 14.489780667000048 ], [ -91.66200325599999, 14.490882090000071 ], [ -91.661692780999942, 14.491793305000044 ], [ -91.661362627999949, 14.492407238000055 ], [ -91.659717695999973, 14.49411761500005 ], [ -91.659278330999939, 14.494666513000027 ], [ -91.658639710999978, 14.495852685000045 ], [ -91.658460958999967, 14.496552219000023 ], [ -91.658434579999948, 14.497274094000034 ], [ -91.658692650999967, 14.497848443000066 ], [ -91.658907873999965, 14.498316333000048 ], [ -91.659122706999938, 14.498848628000076 ], [ -91.659269850999976, 14.499740982000048 ], [ -91.659070402999987, 14.500313848000076 ], [ -91.658740928999975, 14.500715351000053 ], [ -91.658302125999967, 14.50126424900003 ], [ -91.658100820999948, 14.502048399000046 ], [ -91.658075529999962, 14.502685535000069 ], [ -91.658115030999966, 14.504118510000069 ], [ -91.658171632999938, 14.504830690000063 ], [ -91.658255675999953, 14.505319299000064 ], [ -91.658317753999938, 14.50589252900005 ], [ -91.65835638599998, 14.506699519000051 ], [ -91.658287920999953, 14.507187256000066 ], [ -91.65819786899999, 14.507696341000042 ], [ -91.65799674699997, 14.508544896000046 ], [ -91.657925458999955, 14.509500409000054 ], [ -91.658094219999953, 14.514023346000045 ], [ -91.657936201999973, 14.514935425000033 ], [ -91.657604909999975, 14.515634086000034 ], [ -91.657318710999959, 14.516163513000038 ], [ -91.657052434999969, 14.51694728800004 ], [ -91.65629733899999, 14.519257056000072 ], [ -91.655901083999936, 14.519955338000045 ], [ -91.655614807999939, 14.520400020000068 ], [ -91.655220343999986, 14.520801142000039 ], [ -91.65455549699999, 14.52131935400007 ], [ -91.651294630999985, 14.524833899000043 ], [ -91.651159320999966, 14.52553367400003 ], [ -91.65110681699997, 14.527019222000035 ], [ -91.65108111, 14.527719627000067 ], [ -91.651033170999938, 14.528356629000029 ], [ -91.650985427999956, 14.52905690700004 ], [ -91.65067381099999, 14.530137578000051 ], [ -91.649289860999943, 14.531977034000022 ], [ -91.648916566999958, 14.532420071000047 ], [ -91.648302970999964, 14.532990532000042 ], [ -91.647929672999965, 14.533433568000078 ], [ -91.647577049999938, 14.534005534000073 ], [ -91.647224881999989, 14.53459784100005 ], [ -91.646913752999978, 14.535593764000055 ], [ -91.646645086999968, 14.536759423000035 ], [ -91.646379905999936, 14.537352229000021 ], [ -91.645144261999974, 14.539871589000029 ], [ -91.643115914999953, 14.543596492000063 ], [ -91.642785749999973, 14.544190047000029 ], [ -91.642453193999984, 14.545079624000039 ], [ -91.642186822999975, 14.545863376000057 ], [ -91.641853349999963, 14.546902097000043 ], [ -91.641519229999972, 14.548045893000051 ], [ -91.641405705999944, 14.548873466000032 ], [ -91.64135824799996, 14.549425719000055 ], [ -91.641218789999982, 14.55088928400005 ], [ -91.641244232999952, 14.553840777000062 ], [ -91.641150342999936, 14.554965632000062 ], [ -91.641056137999954, 14.556047543000034 ], [ -91.640942867999968, 14.556832180000072 ], [ -91.640540572999953, 14.558401557000025 ], [ -91.64031702699998, 14.559291761000054 ], [ -91.640051143999983, 14.559990765000066 ], [ -91.639764972999956, 14.560498695000035 ], [ -91.639456887999984, 14.560985026000026 ], [ -91.639149057999987, 14.56142955200005 ], [ -91.637918333999949, 14.563014442000053 ], [ -91.637522585999989, 14.563606471000071 ], [ -91.636480709999944, 14.566360782000061 ], [ -91.636389398999938, 14.567060797000067 ], [ -91.636297878999983, 14.571285011000043 ], [ -91.636032746999945, 14.571857462000025 ], [ -91.635153613999989, 14.573040999000057 ], [ -91.634297820999961, 14.574012247000041 ], [ -91.633989646999964, 14.574413825000022 ], [ -91.633747075999963, 14.574900528000057 ], [ -91.632241707999981, 14.578671281000027 ], [ -91.632085746999962, 14.579221764000067 ], [ -91.631993566999938, 14.579964706000055 ], [ -91.632248132999962, 14.584679057000073 ], [ -91.632266053999956, 14.585253157000068 ], [ -91.632130949999976, 14.585994715000027 ], [ -91.630951135999965, 14.589916501000062 ], [ -91.630486743999938, 14.590996232000066 ], [ -91.629786521999961, 14.591374034000069 ], [ -91.628282186999968, 14.59138666900003 ], [ -91.627671530999976, 14.591446355000073 ], [ -91.627169138999989, 14.591634358000022 ], [ -91.626644171999942, 14.591908098000033 ], [ -91.626138092999952, 14.592690407000077 ], [ -91.626199902999986, 14.593200358000047 ], [ -91.626523128999963, 14.593839528000046 ], [ -91.626890129999936, 14.594436019000057 ], [ -91.627213625999957, 14.595032252000067 ], [ -91.627295772999958, 14.595818024000039 ], [ -91.627225608999936, 14.596561090000023 ], [ -91.627405740999961, 14.597356474000037 ], [ -91.620783568999968, 14.59957724700007 ], [ -91.617769704999944, 14.600789880000036 ], [ -91.610102335999954, 14.602668560000041 ], [ -91.601415942999949, 14.603747680000026 ], [ -91.598617537999985, 14.603528637000068 ], [ -91.594816332999983, 14.602262892000056 ], [ -91.592763997999953, 14.601500274000045 ], [ -91.590611579999972, 14.600786750000054 ], [ -91.589224231999935, 14.600551259000042 ], [ -91.588600068999938, 14.600450314000057 ] ] ] ] } },
{ "type": "Feature", "properties": { "Codigo": 2206, "datos_finales_color_riesgo": "FDE6D7" }, "geometry": { "type": "MultiPolygon", "coordinates": [ [ [ [ -89.788117032999935, 14.234850981000022 ], [ -89.782908046999978, 14.233572025000058 ], [ -89.779792684999961, 14.232059377000041 ], [ -89.771889940999984, 14.230638879000026 ], [ -89.76186430499996, 14.227709712000035 ], [ -89.762829734999968, 14.220286248000036 ], [ -89.762528069999973, 14.213277864000077 ], [ -89.763034871999935, 14.209127974000069 ], [ -89.76610819199999, 14.19317340200007 ], [ -89.767416117999971, 14.190353680000044 ], [ -89.768146933999958, 14.183361468000044 ], [ -89.769921473999943, 14.175972492000028 ], [ -89.769944757999951, 14.175186144000065 ], [ -89.769183874999953, 14.174065298000073 ], [ -89.768673091999972, 14.168681562000074 ], [ -89.770016418999944, 14.163834090000023 ], [ -89.769769851999968, 14.163071191000029 ], [ -89.769251621999956, 14.162664669000037 ], [ -89.768667494999988, 14.162092474000076 ], [ -89.768155599999943, 14.161484006000023 ], [ -89.76799921199995, 14.158232539000039 ], [ -89.766910013999961, 14.156081341000061 ], [ -89.766380611999978, 14.152911754000058 ], [ -89.765567869999984, 14.151537398000073 ], [ -89.764003764999984, 14.142209555000022 ], [ -89.761689665999938, 14.139213420000033 ], [ -89.761309876999974, 14.137651906000031 ], [ -89.761122895999961, 14.133868454000037 ], [ -89.761564711999938, 14.129292145000022 ], [ -89.760544872999958, 14.117755015000057 ], [ -89.762028073999943, 14.117833684000061 ], [ -89.764274979999982, 14.119231845000058 ], [ -89.768712408999988, 14.119105304000072 ], [ -89.77172143599995, 14.119523826000034 ], [ -89.772312006999982, 14.119264265000027 ], [ -89.772716024999966, 14.118578958000057 ], [ -89.773113961999968, 14.118201685000031 ], [ -89.773658934999958, 14.108205775000044 ], [ -89.774215680999987, 14.107594739000035 ], [ -89.774234679999907, 14.106778978000023 ], [ -89.775688522999985, 14.105159664000041 ], [ -89.77908451899998, 14.099630710000042 ], [ -89.78075798499998, 14.096034619000022 ], [ -89.786319577999961, 14.098219516000029 ], [ -89.795405240999969, 14.099301131000061 ], [ -89.797975601999951, 14.101394038000024 ], [ -89.801271910999958, 14.104795685000056 ], [ -89.801328163999983, 14.106896902000074 ], [ -89.800436806999983, 14.111971996000023 ], [ -89.799001164999936, 14.113536426000053 ], [ -89.796434738999949, 14.119711080000059 ], [ -89.796530889999985, 14.120526134000045 ], [ -89.795856496999988, 14.121321889000058 ], [ -89.794194680999965, 14.125774906000061 ], [ -89.789376472999948, 14.133365185000059 ], [ -89.78584744799997, 14.136352956000053 ], [ -89.781758841999988, 14.137716918000024 ], [ -89.779691740999965, 14.139339299000028 ], [ -89.779273642999954, 14.140611328000034 ], [ -89.779950992999943, 14.141420628000049 ], [ -89.780762423999988, 14.144823120000069 ], [ -89.78212132499999, 14.147830025000076 ], [ -89.782667077999974, 14.151292161000072 ], [ -89.784443290999945, 14.154484119000074 ], [ -89.78570025099998, 14.158452401000034 ], [ -89.785456348999958, 14.160330607000049 ], [ -89.782798320999973, 14.16209064700007 ], [ -89.782147071999987, 14.162994990000072 ], [ -89.781001797999977, 14.168416341000068 ], [ -89.78002633899996, 14.169710215000066 ], [ -89.78001834, 14.171342141000025 ], [ -89.784667261999971, 14.169089697000061 ], [ -89.789867413999957, 14.16880162700005 ], [ -89.795034566999959, 14.169792910000069 ], [ -89.795681956999942, 14.170232720000058 ], [ -89.799554281999974, 14.170145645000048 ], [ -89.814352354999983, 14.172375601000056 ], [ -89.817631983999945, 14.177050196000039 ], [ -89.818097272999978, 14.180803627000046 ], [ -89.81841288399994, 14.188482906000047 ], [ -89.81751044799995, 14.200118966000048 ], [ -89.816645354999935, 14.202042023000047 ], [ -89.816525683999942, 14.203153314000076 ], [ -89.816565048999962, 14.203812990000074 ], [ -89.815248455999949, 14.206663445000061 ], [ -89.814187970999967, 14.21183561600003 ], [ -89.813589969999953, 14.212402143000077 ], [ -89.812317204999943, 14.216698990000054 ], [ -89.810969597999986, 14.218656195000051 ], [ -89.809940378999954, 14.221338865000064 ], [ -89.80589267199997, 14.227088413000047 ], [ -89.804778639999938, 14.227772153000046 ], [ -89.801797922999981, 14.23131464100004 ], [ -89.800136629999898, 14.234046325000065 ], [ -89.797648210999967, 14.236596461000033 ], [ -89.796348167999952, 14.236845372000062 ], [ -89.788117032999935, 14.234850981000022 ] ] ] ] } }
]
}
